{"type": "FeatureCollection", "features": [{"type": "Feature", "properties": {"id": 1, "nama": "Danau 1"}, "geometry": {"type": "Polygon", "coordinates": [[[109.18711489600012, 1.031168451000065], [109.18703589800006, 1.0307484620000427], [109.18653784000007, 1.0307546870001136], [109.18639239800002, 1.0305902070000048], [109.18556115400008, 1.0307248280000412], [109.18510821000008, 1.031020808000017], [109.18520829500002, 1.0313252430000706], [109.18551545200003, 1.0314735390000838], [109.18594898400002, 1.03119057000003], [109.18643571500006, 1.0311973600000588], [109.18674591300005, 1.0316874730000212], [109.18711489600012, 1.031168451000065]]]}}, {"type": "Feature", "properties": {"id": 2, "nama": "Danau 2"}, "geometry": {"type": "Polygon", "coordinates": [[[109.19091708600003, 1.0353264130001048], [109.19071216600004, 1.0348847740000675], [109.19081436900007, 1.0343065950000128], [109.19073524500008, 1.0341085850000606], [109.19012405600006, 1.0339999930000463], [109.18971926600004, 1.0342119669999992], [109.18962284000006, 1.0345836400000206], [109.18970053600009, 1.0348129820000782], [109.1901632220001, 1.0347975850000477], [109.19031591300003, 1.0350127279999963], [109.19060738500008, 1.0350200210000668], [109.19065244500007, 1.0354031700000608], [109.19091708600003, 1.0353264130001048]]]}}, {"type": "Feature", "properties": {"id": 3, "nama": "Danau 3"}, "geometry": {"type": "Polygon", "coordinates": [[[108.85355073500007, 0.8011261820000346], [108.85587250900005, 0.7998035620000241], [108.85653148100005, 0.799222545000001], [108.85530483800007, 0.7982447170000082], [108.85395401000004, 0.799668753000061], [108.85408829400005, 0.7999099460000334], [108.85294029700009, 0.8005576060000639], [108.85249306900003, 0.7997543180000353], [108.85130273000004, 0.8004258649999993], [108.85133459400002, 0.8008243840001104], [108.849846519, 0.8009396290000534], [108.85015516900005, 0.8018522350000676], [108.84901521700004, 0.8025689350000373], [108.85002619300012, 0.8030309629999852], [108.8515716190001, 0.8021399530000703], [108.85228523400008, 0.8014446130000916], [108.85355073500007, 0.8011261820000346]]]}}, {"type": "Feature", "properties": {"id": 4, "nama": "Danau 4"}, "geometry": {"type": "Polygon", "coordinates": [[[108.86851634200012, 0.8364157570000206], [108.86872597400006, 0.8359244490000481], [108.86888900400004, 0.8359487090000126], [108.8694596970001, 0.8363693440000883], [108.86969336100007, 0.8362808950000531], [108.86931651400006, 0.8358012240000665], [108.86865949200006, 0.8355777410000496], [108.86849816500003, 0.8356486130000516], [108.86849986700008, 0.8359971630000249], [108.86817365000009, 0.8363556160000183], [108.86851634200012, 0.8364157570000206]]]}}, {"type": "Feature", "properties": {"id": 5, "nama": "Danau 5"}, "geometry": {"type": "Polygon", "coordinates": [[[108.87265618600007, 0.8377898860000297], [108.87195143300004, 0.8373975180000723], [108.87142774100005, 0.836899768000011], [108.87102026900008, 0.8372855330000437], [108.87105829400012, 0.8374389890000398], [108.8714166060001, 0.8376777230000751], [108.87169052400012, 0.83760955000003], [108.87192026400002, 0.8377702980000965], [108.87268587300005, 0.837933744000031], [108.87265618600007, 0.8377898860000297]]]}}, {"type": "Feature", "properties": {"id": 6, "nama": "Danau 6"}, "geometry": {"type": "Polygon", "coordinates": [[[108.9730586300001, 0.9445746370001071], [108.97303018200006, 0.9443444490000683], [108.97323744500007, 0.944272645000078], [108.97262427200005, 0.9419394460000294], [108.9713926090001, 0.9423774760000345], [108.97178946700008, 0.9439409260000762], [108.97197289400006, 0.9439098680000821], [108.97210121000002, 0.9444302140000591], [108.9723394170001, 0.9443895950000734], [108.97239877400004, 0.944710913000014], [108.9730586300001, 0.9445746370001071]]]}}, {"type": "Feature", "properties": {"id": 7, "nama": "Danau 7"}, "geometry": {"type": "Polygon", "coordinates": [[[108.97910673100003, 0.9637624450000057], [108.97807121900007, 0.959284090000013], [108.98076143500008, 0.9586653160000633], [108.98076407600003, 0.9588335100000354], [108.98152830000002, 0.9588449950000086], [108.9815205720001, 0.9580067940000223], [108.98058942000006, 0.9577194860000535], [108.97889649800005, 0.9579418190000641], [108.97745, 0.9583187000000724], [108.97706751300007, 0.9566338030000185], [108.97558266700004, 0.9570161770000372], [108.97623843400004, 0.9597820600000926], [108.97636173000011, 0.9597297470000274], [108.97654755900002, 0.9604605190000068], [108.97732058100004, 0.9641335940000726], [108.97910673100003, 0.9637624450000057]]]}}, {"type": "Feature", "properties": {"id": 8, "nama": "Danau 8"}, "geometry": {"type": "Polygon", "coordinates": [[[108.98567436300006, 0.9793132389999801], [108.98371951400004, 0.9792931860000973], [108.98370014300005, 0.9803363460000778], [108.98553174900007, 0.9804560640000357], [108.98567436300006, 0.9793132389999801]]]}}, {"type": "Feature", "properties": {"id": 9, "nama": "Danau 9"}, "geometry": {"type": "Polygon", "coordinates": [[[108.9838317680001, 0.9821877490000528], [108.98549389000004, 0.9821174730001001], [108.98562597000004, 0.980687715000018], [108.98248515700006, 0.9805788920000733], [108.98077092300007, 0.9807246070000506], [108.98064588900012, 0.9808272610000177], [108.98042011900009, 0.9822129260000043], [108.98106138600012, 0.9825990779999803], [108.98199650500004, 0.9827023780000896], [108.98257763800007, 0.9826503170000453], [108.9838317680001, 0.9821877490000528]]]}}, {"type": "Feature", "properties": {"id": 10, "nama": "Danau 10"}, "geometry": {"type": "Polygon", "coordinates": [[[109.0161223140001, 0.7557040070000252], [109.01589750000007, 0.7547177640000466], [109.01546006600002, 0.754730746000055], [109.01553038400006, 0.7556272680000706], [109.01504826900005, 0.7559645500000887], [109.01495911700005, 0.7561728150000899], [109.01511342200011, 0.7567028730000711], [109.01534392800009, 0.7566871560000141], [109.01556404500009, 0.7564868640000508], [109.01564550300009, 0.7559147340000525], [109.0161223140001, 0.7557040070000252]]]}}, {"type": "Feature", "properties": {"id": 11, "nama": "Danau 11"}, "geometry": {"type": "Polygon", "coordinates": [[[109.13888146300012, 0.7617999180000954], [109.13866187800006, 0.7612996460000918], [109.13814187200003, 0.7610968590000109], [109.137428663, 0.7602286330000272], [109.13750615900001, 0.7599933810001023], [109.13728170100009, 0.7600073000000105], [109.13708653700012, 0.7603110700000979], [109.13758782300002, 0.7608706740000368], [109.13767578600002, 0.7614893180000646], [109.13793110500009, 0.7616732990000106], [109.13845586000008, 0.7616517070000892], [109.13888146300012, 0.7617999180000954]]]}}, {"type": "Feature", "properties": {"id": 12, "nama": "Danau 12"}, "geometry": {"type": "Polygon", "coordinates": [[[109.03182399800004, 0.7615968880000832], [109.03149957500001, 0.7610304250000208], [109.0316121860001, 0.7608104230000254], [109.03193051000005, 0.7606422990000592], [109.03196595800006, 0.7604546230000739], [109.03143899000007, 0.7599398500000252], [109.0311689530001, 0.7599526740000204], [109.0304872120001, 0.7604507070001052], [109.03029738500003, 0.7608227670000698], [109.0303518280001, 0.7612726000000745], [109.03002395700005, 0.7612206750000414], [109.02990525900009, 0.7606834409999994], [109.0293138660001, 0.7604372290000558], [109.02898250700012, 0.7609872040000862], [109.02939043700003, 0.7617284400000432], [109.02987591700006, 0.7615862800000937], [109.03044811100006, 0.7616221420000411], [109.03111335400004, 0.7620496060000601], [109.03151201300007, 0.7619462330000335], [109.03182399800004, 0.7615968880000832]]]}}, {"type": "Feature", "properties": {"id": 13, "nama": "Danau 13"}, "geometry": {"type": "Polygon", "coordinates": [[[109.04513494700005, 0.7658039450000995], [109.04570502300005, 0.765809243000005], [109.04572019600006, 0.7654291880000006], [109.04473281400008, 0.7648850760000112], [109.04476309600001, 0.764283544000067], [109.04401831700002, 0.7635784510000807], [109.043575763, 0.7635732210000921], [109.04346805700007, 0.7639884610000767], [109.04450284200006, 0.7647616370000119], [109.04473482400007, 0.7659799450000069], [109.0449723340001, 0.7660178130001203], [109.04513494700005, 0.7658039450000995]]]}}, {"type": "Feature", "properties": {"id": 14, "nama": "Danau 14"}, "geometry": {"type": "Polygon", "coordinates": [[[109.02396870700005, 0.7660541270001051], [109.02404589500004, 0.7654575340000367], [109.02389221500003, 0.7651340980000096], [109.02372485200004, 0.7650520460000596], [109.0228560680001, 0.7653112450000119], [109.02230384400006, 0.765862072000024], [109.02197357200001, 0.7658573619999895], [109.02162080600003, 0.765565715000017], [109.02101536700003, 0.7637755510000463], [109.02139095000011, 0.7636299880000816], [109.02184789100008, 0.7636666300000048], [109.02213757800007, 0.7633843950001005], [109.02258075800006, 0.7638354830000313], [109.02282961300004, 0.7637855060000707], [109.02299279900005, 0.7631206330000371], [109.02290257300004, 0.7625512880000915], [109.02262219800011, 0.762250570000079], [109.02194810300003, 0.7621773900000637], [109.02168576500009, 0.7620315220000737], [109.02156409200005, 0.7609702940000194], [109.02143294500003, 0.7608290450000563], [109.02099409300006, 0.7608151800000638], [109.02038761900005, 0.7612885580000626], [109.0200801110001, 0.7609832710000273], [109.020075729, 0.7606644620000278], [109.02040612200007, 0.760400456000033], [109.02020722200005, 0.7600269080000341], [109.02133511600002, 0.7594378720000581], [109.02172801700003, 0.7594485960000572], [109.02216786100009, 0.7599076010001102], [109.02216745600006, 0.7607988220000426], [109.02299497800004, 0.7611999940000178], [109.02323569100007, 0.7617907390000465], [109.02354476600006, 0.7618119770000273], [109.0237384490001, 0.7621443010000792], [109.02432002500008, 0.7619705410000019], [109.02422070100003, 0.7614958770000744], [109.02428384300002, 0.7608894490000804], [109.02329914100008, 0.7605092990000681], [109.0232521200001, 0.7602297840000336], [109.02347750100009, 0.7599714800000665], [109.02479272300012, 0.7592970730000435], [109.02494473400007, 0.7590862040000044], [109.02529612700002, 0.7582109570000615], [109.02523362900008, 0.7573988040000099], [109.02501898100009, 0.7571033880000808], [109.02438000900007, 0.75676558900002], [109.02386706300008, 0.7557792100000302], [109.02156734500005, 0.755646316000048], [109.02118483600012, 0.7558359830000203], [109.02106942900006, 0.7561628930000683], [109.02156706800012, 0.7562580430000363], [109.02157214, 0.7566219180000342], [109.02093271700004, 0.7572808120000172], [109.02049256600012, 0.7575179230000071], [109.01880569300008, 0.7575435120000815], [109.01837109500009, 0.7570845110001176], [109.01833994700009, 0.7564674980000472], [109.01822472900007, 0.7563777950000858], [109.01804128200007, 0.7565886580000356], [109.01785747000005, 0.7576010790000485], [109.01764258400003, 0.7578330210000548], [109.0172708170001, 0.7574320610000083], [109.01697214400008, 0.7575901290000306], [109.01655310000004, 0.7574739200000966], [109.01650586000004, 0.7576795640000586], [109.01682537100001, 0.7577799040001008], [109.0168199780001, 0.758122686000041], [109.01705558400005, 0.7584075590000747], [109.01700824500004, 0.7588294210000743], [109.01676724200009, 0.7588767699999952], [109.01663634300009, 0.7587448700000063], [109.01623329200005, 0.7580274850000688], [109.01580363800011, 0.7580559860000289], [109.01584337000011, 0.7599584250000522], [109.01565974200011, 0.7605437000000723], [109.01500725300012, 0.7611564430000559], [109.01449647300005, 0.7611825720000862], [109.01338498800001, 0.7602486510000848], [109.01266073800004, 0.7602614989999932], [109.01235904500004, 0.7612883650000466], [109.01174983300008, 0.7617613850000158], [109.01183206600004, 0.7623639150000425], [109.01242021000003, 0.7621361090000232], [109.01291655200006, 0.762194352000046], [109.01305658800001, 0.7623987619999948], [109.01295682500002, 0.762904977000046], [109.01339416500007, 0.7630989730001101], [109.01382913500008, 0.7627405860000334], [109.01541534600005, 0.7622943850000627], [109.01588798900008, 0.7626189260000924], [109.01545413500006, 0.7633833830001056], [109.01507362900011, 0.7649217560000263], [109.01494256200002, 0.7651352720001068], [109.01437538200007, 0.7653406730000487], [109.01453631300006, 0.765676933000071], [109.01444192000007, 0.765890466000064], [109.01403797900004, 0.76596376], [109.01388639100011, 0.7657422010000534], [109.0129062400001, 0.7658508060000688], [109.01205306800003, 0.7652815960000456], [109.01181520600007, 0.7642025700000286], [109.01156518500008, 0.7641940630000352], [109.01127006000009, 0.7643885680000526], [109.01068166300007, 0.7644050750000861], [109.01083987400001, 0.7646971090000907], [109.01155487000003, 0.7648836860000738], [109.01158454400007, 0.765591792000043], [109.01211753800004, 0.7664578490000249], [109.01213575700004, 0.7667045180000063], [109.01155714200003, 0.767184133000077], [109.01127225600008, 0.7668735850000505], [109.01083052400013, 0.7668968690000231], [109.01063204700004, 0.7671686000000353], [109.01073854900007, 0.7675528910000349], [109.01059840200011, 0.767843112000067], [109.0099048550001, 0.7681414560000608], [109.00896802500003, 0.7682735699999785], [109.00874417000007, 0.7693473410000937], [109.00938057800006, 0.7700439760000908], [109.01037269100009, 0.7693178970000556], [109.01155449600007, 0.7692932890000623], [109.01213489000006, 0.7685804420000562], [109.01239331700003, 0.7684396100000388], [109.01301506600005, 0.7684029930000289], [109.0145507860001, 0.7672106960000544], [109.01529920800003, 0.7671993000000885], [109.01556747000002, 0.7674293050000234], [109.01556566600006, 0.7677179110000107], [109.01501523000007, 0.7680549770000109], [109.01516703700011, 0.7682879210000113], [109.01547440100005, 0.7681420840000239], [109.0158613420001, 0.7676556600001003], [109.01691099100007, 0.7676213940000185], [109.01730473100005, 0.7673504760000736], [109.01749826200009, 0.7669751850000193], [109.01722573400009, 0.7664502240000157], [109.01729162900004, 0.7658211500000132], [109.01694315800007, 0.7652544440000195], [109.01695361500005, 0.7650354730001094], [109.01724028500006, 0.764847925000046], [109.01741632800005, 0.7649418520000903], [109.01807196600004, 0.7657902290000305], [109.01819592500007, 0.7665410400000692], [109.01902449900007, 0.7667395430000621], [109.01914903800007, 0.7662078220000321], [109.01888711600007, 0.7651371710000863], [109.01889080400011, 0.7646366700000637], [109.0193362480001, 0.7645534570000176], [109.02023736500006, 0.7646685810000395], [109.02064839100005, 0.7643663750000815], [109.02091770900003, 0.7643526030000078], [109.02117657200004, 0.7645543109999995], [109.02122795900004, 0.7654371740000396], [109.02105870800007, 0.7655935020000957], [109.02056853600001, 0.7653152190000743], [109.02049584300003, 0.7657287960000989], [109.02079239300006, 0.7665804880000469], [109.02084725900006, 0.7673938290001079], [109.02132694100005, 0.7679432190000899], [109.02107088900001, 0.7691283260000024], [109.0212502730001, 0.7694759790000791], [109.0213328190001, 0.7701781189999988], [109.02143633200005, 0.7703276200000229], [109.0216365900001, 0.7703450920000474], [109.02206839200004, 0.769893454000071], [109.02263470900009, 0.7697546900000471], [109.02304584200009, 0.7692057150000995], [109.02328781800011, 0.7686079970000268], [109.02322647800011, 0.7668318720000631], [109.02352052900001, 0.7666505470000704], [109.02396870700005, 0.7660541270001051]]]}}, {"type": "Feature", "properties": {"id": 15, "nama": "Danau 15"}, "geometry": {"type": "Polygon", "coordinates": [[[109.05314649100008, 0.7715651730001003], [109.05324913100004, 0.7712707390000748], [109.05312170000008, 0.7710919730000274], [109.05246921200009, 0.7708777290000643], [109.05220162000006, 0.7709959030000721], [109.05217905700006, 0.7711318130000375], [109.05246640800003, 0.7715346590000625], [109.05314649100008, 0.7715651730001003]]]}}, {"type": "Feature", "properties": {"id": 16, "nama": "Danau 16"}, "geometry": {"type": "Polygon", "coordinates": [[[109.01344889000006, 0.7727132710000593], [109.01506048200008, 0.7706964350000742], [109.0155543320001, 0.7691755039999979], [109.01547301800011, 0.768920423000031], [109.01509524400004, 0.7690248330000546], [109.01508398500008, 0.7696753880000582], [109.01474958300012, 0.770369897000057], [109.01413599700007, 0.770755532000079], [109.01258804900006, 0.7723729290000545], [109.01208147700007, 0.7723120470000797], [109.01172264300004, 0.772540672000078], [109.01126529300004, 0.7726148890000903], [109.01029873900009, 0.7723994190000258], [109.00997007400008, 0.772537088000048], [109.00985495800006, 0.7727520480000702], [109.00995344600004, 0.7729450560000526], [109.0101560610001, 0.7730113100001166], [109.01166484500006, 0.7731746660000436], [109.01163443500012, 0.7737838530000882], [109.01123425300005, 0.7745968670000334], [109.01127516200006, 0.7749524830000585], [109.01154570900006, 0.7750744010000208], [109.01192775100006, 0.774793908000083], [109.01258894400004, 0.7734233540000144], [109.01344889000006, 0.7727132710000593]]]}}, {"type": "Feature", "properties": {"id": 17, "nama": "Danau 17"}, "geometry": {"type": "Polygon", "coordinates": [[[109.05299737100009, 0.7766154640000753], [109.0525347660001, 0.7759194910000442], [109.05303009100004, 0.7753631200001063], [109.05316867400005, 0.7745897550000667], [109.05331659400012, 0.7744927390000331], [109.05414272400009, 0.7746193300000268], [109.05424243200008, 0.7744931670000685], [109.05386648800005, 0.7741111390000786], [109.053728467, 0.7736547860000673], [109.05356451500003, 0.7736482370000584], [109.0534999020001, 0.7743439650000692], [109.05308526600008, 0.7742110990000892], [109.0530727430001, 0.7734667890000555], [109.05297633600013, 0.7733858450001083], [109.05264522200008, 0.7736582370000864], [109.05247538200007, 0.7740374990000252], [109.05228619200004, 0.7737695420000588], [109.05196826200003, 0.7738287190000701], [109.05201813600007, 0.7741163970000695], [109.05216811300004, 0.7742171400000561], [109.0528879330001, 0.7740538750000479], [109.052892205, 0.7745928640000574], [109.05255778800004, 0.7747804040000315], [109.05229077200006, 0.7752074450000155], [109.05176027500005, 0.775365769000059], [109.05137755100009, 0.7757280320001012], [109.05089208200006, 0.7758281200000336], [109.05091735000012, 0.7768280799999925], [109.05155720900004, 0.7765274220000737], [109.05214213900011, 0.7768610100000526], [109.05225130900008, 0.7771393659999912], [109.05225758300007, 0.7774823970000408], [109.05210636900009, 0.7777476830000527], [109.05142801900008, 0.7778541630000699], [109.05165601800003, 0.7783817450000239], [109.05196459900007, 0.7784563230000661], [109.05222194600006, 0.778077816000101], [109.0525209900001, 0.7779129200000465], [109.05263706800012, 0.7771719060000191], [109.05293613100008, 0.7769649370000362], [109.05299737100009, 0.7766154640000753]]]}}, {"type": "Feature", "properties": {"id": 18, "nama": "Danau 18"}, "geometry": {"type": "Polygon", "coordinates": [[[109.20637724900006, 0.8060027390000233], [109.20589451900008, 0.8060467870001151], [109.20583157400003, 0.8077583750000681], [109.20567925600004, 0.8084643950000423], [109.20580934700006, 0.8085070810001103], [109.20643873700008, 0.8083437400000957], [109.20655968900006, 0.8081340270000634], [109.2064517900001, 0.8070725760000794], [109.20676459900004, 0.806548303000044], [109.20637724900006, 0.8060027390000233]]]}}, {"type": "Feature", "properties": {"id": 19, "nama": "Danau 19"}, "geometry": {"type": "Polygon", "coordinates": [[[109.20603245000004, 0.8151176720000439], [109.20545705500004, 0.8151634420000118], [109.2054835120001, 0.8156467480000327], [109.20528532700004, 0.8157617290000427], [109.20527760700011, 0.8159726850000002], [109.20581866200011, 0.8160228000000611], [109.20612382000004, 0.8152979910000422], [109.20603245000004, 0.8151176720000439]]]}}, {"type": "Feature", "properties": {"id": 20, "nama": "Danau 20"}, "geometry": {"type": "Polygon", "coordinates": [[[109.2068297590001, 0.8180204220000551], [109.20663780800004, 0.817767325999986], [109.20631592800005, 0.8180495310000655], [109.20625067900006, 0.8185824230001035], [109.20638679600005, 0.8188193340000769], [109.20660663900011, 0.8187446400000251], [109.20682355200003, 0.8183115399999839], [109.2068297590001, 0.8180204220000551]]]}}, {"type": "Feature", "properties": {"id": 21, "nama": "Danau 21"}, "geometry": {"type": "Polygon", "coordinates": [[[109.02180780300006, 0.7525680840000835], [109.02204490700004, 0.7516654610000959], [109.02198858000008, 0.750907012000047], [109.02161552800004, 0.7501819730000978], [109.02165004491496, 0.7500000024001761], [109.02103617310674, 0.7500000024000872], [109.02078878000012, 0.750158106000077], [109.020327545925, 0.7500000020000517], [109.01983169202325, 0.7500000011889671], [109.01976853600007, 0.7504395300000919], [109.02005172100006, 0.7508457200000382], [109.01983155600006, 0.7511543630000848], [109.01933814200008, 0.7512145380000899], [109.01955808900007, 0.7513891460000597], [109.01930765000004, 0.752305189000003], [109.01959437700006, 0.7522449110000782], [109.0200746140001, 0.7518290060000385], [109.02040799900006, 0.7517989500000386], [109.02056464400005, 0.7518862750000697], [109.02073112200006, 0.7523360390000686], [109.02121117300007, 0.7523530400000542], [109.02180780300006, 0.7525680840000835]]]}}, {"type": "Feature", "properties": {"id": 22, "nama": "Danau 22"}, "geometry": {"type": "Polygon", "coordinates": [[[109.0077966860001, 0.7538574610000968], [109.00761932600008, 0.7521962300000471], [109.00733142500007, 0.7517214850001128], [109.00756499400003, 0.7507090830001015], [109.00732155300005, 0.7503741080000967], [109.00632330200006, 0.7504445020000592], [109.00592999200002, 0.7502966600000835], [109.00560729312085, 0.7500000017422135], [109.00443153132083, 0.750000001448937], [109.00434634700008, 0.7506248090000565], [109.00421290200006, 0.7508395170000579], [109.00387281800008, 0.7509534590000708], [109.0036594740001, 0.7509399430000183], [109.00330956100001, 0.7506646050000629], [109.00317053779764, 0.7500000009502248], [109.00122608531142, 0.7500000006032135], [109.00131307900003, 0.7503949560000454], [109.00198564600007, 0.750132548000094], [109.0025665920001, 0.7502747260000451], [109.00278926600004, 0.7507293040000871], [109.00279480600005, 0.7511281660000488], [109.00224047200001, 0.7521553980000437], [109.00223242300007, 0.7525720030000524], [109.00287397000002, 0.7529730750000194], [109.00384568500004, 0.7530842669999824], [109.00400788700006, 0.7535088620000305], [109.0038086220001, 0.7539385530000562], [109.00387924500008, 0.7541627130000403], [109.00450918100006, 0.7544413000000869], [109.005692632, 0.7554939030000494], [109.00688965600003, 0.7555049990000793], [109.00768340300006, 0.7553023410000979], [109.00796376600007, 0.7550915260000632], [109.00816039900009, 0.7546802870000544], [109.0077966860001, 0.7538574610000968]]]}}, {"type": "Feature", "properties": {"id": 23, "nama": "Danau 23"}, "geometry": {"type": "Polygon", "coordinates": [[[109.01181364000011, 0.7582099780000693], [109.01217797300006, 0.7582060690000123], [109.01222861300008, 0.7581103310000845], [109.01164438000005, 0.7565595340001128], [109.01174784900009, 0.7560176150000384], [109.01161446700007, 0.7555774520000345], [109.01187361200002, 0.7554125400000675], [109.01235734900007, 0.7554372120000661], [109.01242570900004, 0.7564295020001008], [109.01252280000008, 0.7565803190000562], [109.01265641100012, 0.7565151800000844], [109.01273393100006, 0.7551826960000572], [109.0119669470001, 0.7549154370000597], [109.01235991100002, 0.7542452850000334], [109.0122427620001, 0.7537032550000387], [109.0126518790001, 0.7531248030000501], [109.0126378240001, 0.7528823310000607], [109.01228384200003, 0.7523829870000451], [109.01278365100008, 0.7526582780000854], [109.01279188800005, 0.7523404350000771], [109.01260372900003, 0.7521854980000473], [109.01198443100013, 0.7520711149999979], [109.01166884800004, 0.751710329000078], [109.01177421500005, 0.7514353160000606], [109.01217708300008, 0.7512460200000302], [109.01228447600008, 0.7509811980000567], [109.01151765100005, 0.7503614470000262], [109.01108863900008, 0.7501860289999893], [109.01029113599999, 0.7502753130000048], [109.0096428910001, 0.7500000070000521], [109.00915805313629, 0.7500000029356588], [109.00944102500009, 0.7503238220000217], [109.00953794500003, 0.7508312019999916], [109.00936562800007, 0.7514382890000402], [109.00899310100007, 0.7516887300000672], [109.00900519700009, 0.7517946870000412], [109.00939370800009, 0.7520087950000818], [109.00964648700004, 0.7525121690000756], [109.0105531870001, 0.7526389170000822], [109.01087064700008, 0.7533155080001084], [109.01062553800004, 0.7537656780000521], [109.01010732200007, 0.7539141770000821], [109.00978736000006, 0.7542766960000566], [109.00977917400009, 0.7544824840000306], [109.01034781900007, 0.7547211240000582], [109.01043466200007, 0.7551245920000458], [109.01034336600006, 0.7556033590000464], [109.0097481010001, 0.7560492880000833], [109.00971964400006, 0.7563100769999895], [109.01033062300007, 0.7569195690000594], [109.01116647400004, 0.7570829520000775], [109.01117642200006, 0.7574476670000561], [109.01068024900005, 0.7580831310000544], [109.0107044430001, 0.7582889250000289], [109.01123465400008, 0.7584684690000518], [109.01181364000011, 0.7582099780000693]]]}}]}