{"type": "FeatureCollection", "features": [{"type": "Feature", "properties": {"nama": "Batas Kota Singkawang"}, "geometry": {"type": "MultiPolygon", "coordinates": [[[[108.78703905700007, 0.7509241390000243], [108.78809518600006, 0.7526730220000433], [108.78806741300008, 0.7531990930000498], [108.78838566100004, 0.7532783600000359], [108.79111682400006, 0.7528209120000229], [108.79219374400007, 0.752291424], [108.79325516000006, 0.7513426350001007], [108.79373070500006, 0.7511767390000523], [108.79378197800013, 0.7507970340000769], [108.79368452292162, 0.7500000023333664], [108.78575171730968, 0.750000001236999], [108.78703905700007, 0.7509241390000243]]], [[[108.79783647600004, 0.7563960939999825], [108.79764369000007, 0.7564193560000421], [108.79758499400002, 0.7560222280000461], [108.79742971400005, 0.7559898110000285], [108.79654957000005, 0.7563343490000252], [108.79643685700006, 0.7568391890000514], [108.79702582700011, 0.7569688610000336], [108.79745794000007, 0.7566492530000568], [108.7974272320001, 0.7573841370000212], [108.79806978000008, 0.7574473520000113], [108.7981913620001, 0.7570395390000195], [108.79783647600004, 0.7563960939999825]]], [[[108.76557090900006, 0.753037266999983], [108.7651152210001, 0.7533752690000606], [108.76534576900009, 0.7523243540000601], [108.76643366300004, 0.7504385130000779], [108.76650331015546, 0.7500000003333662], [108.7594575860958, 0.7500000026666997], [108.75919679000006, 0.7513609590001069], [108.76001844000011, 0.7526612750000483], [108.75990642000008, 0.7549545440000793], [108.75920226500007, 0.7563370080000675], [108.75777982000007, 0.758157323000046], [108.75759878700009, 0.7587030830000829], [108.75757980500003, 0.7599688180000941], [108.757967023, 0.7608893170000508], [108.75881529500003, 0.761775786000034], [108.76013233300003, 0.7629341000000389], [108.76115110900012, 0.7633776470000564], [108.76150181500009, 0.7639790600000795], [108.76228488800005, 0.7643143700000232], [108.76288215699999, 0.7642935830000797], [108.76386468700011, 0.7639249260000414], [108.76466661500002, 0.7632634650000236], [108.76551082100006, 0.7618768510000473], [108.76578915700009, 0.760590153000078], [108.76699224300008, 0.7588748430000836], [108.76691972000002, 0.7582883380000505], [108.76641029500006, 0.7576153600000568], [108.76630859200009, 0.7554505520000854], [108.76582478700001, 0.7549414550000622], [108.765793552, 0.7542291480000118], [108.7660350570001, 0.7538115890001018], [108.76584367700008, 0.7532348950000811], [108.76557090900006, 0.753037266999983]]], [[[108.76576204600006, 0.767441551000041], [108.7654618110001, 0.7677396980001072], [108.76556655100006, 0.768054892000074], [108.76600687400007, 0.768244121000099], [108.76641360200007, 0.7681016600000357], [108.76635900600007, 0.7674832060000236], [108.76576204600006, 0.767441551000041]]], [[[109.24999999999993, 0.7500000000000329], [108.88438630106333, 0.7500000006666996], [108.88448869600003, 0.7552149880000458], [108.88294659700007, 0.7631554920000605], [108.88198888300006, 0.7663659490000407], [108.88008231500005, 0.7713812720000535], [108.87857782600008, 0.7742832560000901], [108.87502729000003, 0.7791005820000629], [108.86786214900005, 0.7868593620000519], [108.86670380400004, 0.7876296270001015], [108.86602348900006, 0.7884024790000987], [108.86349722300011, 0.7903948520000137], [108.86337611100004, 0.7902161760000626], [108.862384879, 0.7909213010000515], [108.86220096400007, 0.7913865980000034], [108.8612675140001, 0.7919235260000201], [108.86067870700006, 0.7920670699999954], [108.86049036700011, 0.7915289910000611], [108.85918469000008, 0.7907659349999863], [108.85838770500004, 0.7900549300000437], [108.85726764200008, 0.789596932000074], [108.85651659800003, 0.7884630450000474], [108.855682238, 0.788166296000008], [108.85483376600006, 0.7875415720000989], [108.85314510200004, 0.7871584290000166], [108.8527570510001, 0.7867862670000436], [108.85237195500011, 0.7858696630000539], [108.85168109000006, 0.7859959860000254], [108.8515064760001, 0.7871225360000667], [108.85187842300004, 0.7877394450000397], [108.85190318700005, 0.788207668000056], [108.85033360800013, 0.7914591490000555], [108.84937064500012, 0.7925025200000535], [108.84817753700008, 0.792454861000107], [108.84787487700008, 0.7926132890000703], [108.84619092700011, 0.7945733530000654], [108.8464108190001, 0.7960712230000988], [108.84634904300013, 0.7976151080000315], [108.84678502600006, 0.7982405770000911], [108.846963669, 0.7991075640000611], [108.846761809, 0.8025616110000344], [108.84684654600008, 0.8044661330000524], [108.84618299600007, 0.8054726890000241], [108.84523000400009, 0.8061587890000377], [108.84481273300011, 0.8061988440000656], [108.84407325400004, 0.8066434040000781], [108.84313156300001, 0.8075807540000968], [108.84350438600005, 0.8087316990000248], [108.84356664100004, 0.8099112380000095], [108.84253496000012, 0.8116713160000666], [108.84206623200006, 0.8117516180000495], [108.84150010700003, 0.8122461370000211], [108.84160833300011, 0.8129519770000693], [108.840679606, 0.8145663500000611], [108.84062415500003, 0.8149556550000314], [108.84074390100008, 0.8154793100000157], [108.84145585000002, 0.816645772000073], [108.84202338400007, 0.8170814500000612], [108.84254359700013, 0.8169282990000015], [108.84307691700012, 0.8172220260000573], [108.84798399100005, 0.8224356370000452], [108.848433211, 0.8232337289999991], [108.84826502100012, 0.8242175200000412], [108.84857908100008, 0.8247815620000809], [108.84917533000004, 0.8249679200000459], [108.84966711900005, 0.8245500830000241], [108.85057412300004, 0.8243664590000188], [108.85269015400006, 0.8257274050000918], [108.85745693700002, 0.8297077690000032], [108.8649301500001, 0.8355442610000141], [108.86600599200004, 0.8367358900000221], [108.86574065800002, 0.8376582680000455], [108.86586040300007, 0.8381972750000566], [108.86619012000008, 0.8380152440000943], [108.86627243400005, 0.8373037370001102], [108.86676410300005, 0.8371064610000412], [108.86765621500007, 0.8363014160000448], [108.86896212000002, 0.8365266450000286], [108.87018313800006, 0.8372612790000611], [108.87325922100003, 0.8399806830000012], [108.87371894900005, 0.8400604150000257], [108.87536044300006, 0.841917276000097], [108.8853170940001, 0.8514862600000273], [108.88640168200004, 0.8526228910001032], [108.88633477100011, 0.8532446280000316], [108.88673109500003, 0.8532245860000609], [108.88722163900012, 0.8535754900000514], [108.89056211300002, 0.8569433560000883], [108.89150426500008, 0.8581126340000234], [108.89166939100006, 0.8590648740000306], [108.89135337600003, 0.8594355930000619], [108.89169840800007, 0.8597739410000793], [108.89207564300001, 0.8606951350000935], [108.89139879000005, 0.8613103050001003], [108.89119565400004, 0.8619117070000337], [108.89125098500008, 0.8626394860000319], [108.89070443800007, 0.8627622940000679], [108.89096253900003, 0.8635525150000811], [108.89085458300006, 0.8656125920000912], [108.89116247800004, 0.8659306600000294], [108.8919906770001, 0.865976320000077], [108.89239915100005, 0.866386392000078], [108.89193862600006, 0.867734104000033], [108.89286688000003, 0.8688192360000224], [108.89306767200011, 0.8696499490000997], [108.89297751600012, 0.8703090780000133], [108.89338133000005, 0.87073317200002], [108.89400520900007, 0.8707428720000232], [108.89440358300007, 0.8698190000000539], [108.89498594400003, 0.869319099000081], [108.8955695940001, 0.8692820230000331], [108.89589608300011, 0.8695798500000729], [108.89669201600006, 0.8692016170000416], [108.89722366200009, 0.868026916000102], [108.89743427200001, 0.8679008110000597], [108.89779578500008, 0.8664346079999818], [108.89818918100003, 0.8661122480000438], [108.89960745900005, 0.8657250110000669], [108.90073728500002, 0.8662461240000185], [108.90324920800002, 0.8660973230000524], [108.90369321900008, 0.8659824940000549], [108.90371640000004, 0.8654128660000859], [108.90426723800005, 0.8650717760000193], [108.90670128100001, 0.8653730630000789], [108.90794523500008, 0.8649609130000835], [108.90826679800004, 0.8646834630000422], [108.908417811, 0.8637916840000637], [108.90882588000002, 0.863197331000003], [108.90968728300007, 0.8628679210000145], [108.91054281600006, 0.862828115000096], [108.91085167400004, 0.8624772960000238], [108.9111851230001, 0.8624582950000503], [108.91316045100011, 0.8634509860000295], [108.91663870700005, 0.8660990260000156], [108.91758162500008, 0.8665425970000351], [108.91832521600006, 0.8673869310000848], [108.91857889800008, 0.8682072520000128], [108.91891662700004, 0.8686267650000845], [108.92161391800002, 0.8708135430000974], [108.92225081000005, 0.8712094810000837], [108.92333739100008, 0.8713659200000601], [108.92409330700009, 0.871884805000005], [108.92519698400011, 0.8734467910000143], [108.93080330800008, 0.8783228510000507], [108.93516538900005, 0.8828146430000894], [108.9354300620001, 0.8833632230000932], [108.93593022900009, 0.8833664950000975], [108.93634094700005, 0.8836094770000402], [108.93664114100002, 0.8845207010000289], [108.93786974100007, 0.8863015490000281], [108.94060020100004, 0.8893106590000466], [108.94094551400009, 0.8891628090000703], [108.9412579870001, 0.8896351810000747], [108.94130414300011, 0.8901416800000606], [108.94210117000006, 0.890640817000059], [108.94243666500002, 0.891451370000067], [108.94308047500009, 0.8918584700000887], [108.943954332, 0.8933830750000249], [108.94865338000005, 0.8990239640000164], [108.95230881600007, 0.9045235010000363], [108.952533326, 0.9051124640000952], [108.95363207100004, 0.9063578930000249], [108.95409994100004, 0.9079060170000419], [108.95637460200004, 0.9120617910000783], [108.95642390100004, 0.912497222000046], [108.95866180200001, 0.9176235120000031], [108.95944805900005, 0.9188515120000895], [108.95950862200009, 0.9195861610000344], [108.95985510300007, 0.920134919000053], [108.96018404200002, 0.9213607400000479], [108.96050188900003, 0.9220015520000446], [108.96085434700005, 0.9221014920000536], [108.96092061900004, 0.9228399790000497], [108.96165975900009, 0.9237609060000418], [108.96136989200008, 0.9241912140001185], [108.96176561200005, 0.9246310420000059], [108.9616793790001, 0.9250774180000798], [108.9620774730001, 0.9253236320001124], [108.965237711, 0.9306916910000895], [108.96798810700002, 0.9365537860000872], [108.96844282900008, 0.9367180470000891], [108.96872244800004, 0.9383832060000197], [108.97014401500006, 0.9415446020000262], [108.97025427900003, 0.9425878470000137], [108.9708980490001, 0.944524263000095], [108.97147931200006, 0.9449710330000238], [108.97154446200003, 0.9457887650000041], [108.97333782500009, 0.9514043510000336], [108.97407792900012, 0.9549739420000636], [108.97435816800004, 0.9555594800000167], [108.97433294100009, 0.9561334430000779], [108.97481684800006, 0.9566826560000452], [108.97461282200005, 0.9573271279999895], [108.97487287600008, 0.957607437000001], [108.97545293900002, 0.9601132560000325], [108.97622432200008, 0.9643251890000082], [108.97662227800005, 0.9648242440000887], [108.97673384300005, 0.9674892180000549], [108.977095004, 0.9689790590000458], [108.97743675600012, 0.9729228470000395], [108.97773043700009, 0.9743084080001063], [108.97764505300003, 0.9756878720000239], [108.9782136060001, 0.9770667380000697], [108.9785152140001, 0.9809411830000103], [108.97884768700007, 0.9817977990000104], [108.9786248930001, 0.9847131259999964], [108.97889880300004, 0.9886721860000103], [108.97870988600003, 0.9891285730001131], [108.97879994000003, 0.9914334190000362], [108.97903934900003, 0.9923663450000442], [108.97864335000013, 0.9939603750000403], [108.97866327900009, 0.9956468480000469], [108.97838129000012, 0.997947161000039], [108.97884866900006, 0.9996192820000127], [108.97842195734081, 1.0000000029999834], [108.99999999999997, 0.9999999999999831], [109.00000000000006, 1.2500000000000222], [109.24999999999993, 1.2500000000000222], [109.24999999999993, 0.7500000000000329]]], [[[108.84032157000004, 0.802211829000048], [108.84049772200005, 0.8023749470000441], [108.84054561500001, 0.8018691290000257], [108.84041940000006, 0.801857073000094], [108.84032157000004, 0.802211829000048]]], [[[108.79078661800008, 0.8395246680000179], [108.79301396100009, 0.8375467250000534], [108.79349755900004, 0.836425059000061], [108.79261601900002, 0.8336916410000272], [108.79029432000003, 0.8306438540000949], [108.78949235400003, 0.8287073480000062], [108.78773612600011, 0.8263330460000207], [108.78667649600001, 0.8252392830000277], [108.7854119780001, 0.822548819000084], [108.78322061200006, 0.8215522460000502], [108.78206260100008, 0.8213661510001069], [108.78176062700005, 0.8209452570000986], [108.78153548000007, 0.8211166560000693], [108.78020448000008, 0.8210964929999998], [108.77903725500005, 0.8214356529999955], [108.77868373000011, 0.8212121560000663], [108.77828182500008, 0.8212637060000683], [108.77710805300003, 0.8218002770000554], [108.77626565300005, 0.8219389730000737], [108.77535832300003, 0.8225604550000698], [108.7752518020001, 0.823984372000024], [108.77549722900007, 0.8246030020000505], [108.77557017600007, 0.8270338710000091], [108.77577278200005, 0.8275690620000598], [108.77567237000008, 0.8282565390000096], [108.7752861750001, 0.8289639970001028], [108.77527877400011, 0.8319845550000027], [108.7749007130001, 0.833477358000061], [108.77486863800002, 0.8346193990000517], [108.77551407900005, 0.8353475760000828], [108.775633795, 0.8359057280000792], [108.77621072900004, 0.836507292000026], [108.77625881900012, 0.8373732120000854], [108.77658992400006, 0.8380782030000633], [108.77741009600007, 0.8380930550000487], [108.77863578100005, 0.8386374570000621], [108.77948407900007, 0.8394549280001096], [108.7805814500001, 0.8394843310000555], [108.78227871800003, 0.8399484539999991], [108.78574844200006, 0.8392945380000727], [108.78789435800006, 0.8398106990000587], [108.78845713100009, 0.8401964980000942], [108.78956605000009, 0.84003316200008], [108.79078661800008, 0.8395246680000179]]]]}}]}