{"type": "FeatureCollection", "features": [{"type": "Feature", "properties": {"id": 1, "nama": "Batas Administrasi"}, "geometry": {"type": "LineString", "coordinates": [[109.04426693500007, 1.147745430000036], [109.04279188700005, 1.149219642000066], [109.04028305300004, 1.152513898000052], [109.03744379500004, 1.1582651140001126], [109.03657655300005, 1.1615036960001106], [109.03598206200006, 1.166474049000044], [109.0353706540001, 1.177491818000032], [109.03564130300002, 1.1795174570000349], [109.03621164900005, 1.1809411500000593], [109.03759133600008, 1.1832909000000562], [109.0419927410001, 1.1922271280000345], [109.0422386390001, 1.2036131180000247]]}}, {"type": "Feature", "properties": {"id": 2, "nama": "Batas Administrasi"}, "geometry": {"type": "LineString", "coordinates": [[109.21477561861401, 0.7500000000001066], [109.21419305300013, 0.7503408600000654], [109.21317918700008, 0.7521409600000588], [109.21076909800007, 0.7550922880000925], [109.20979762900006, 0.7546527910000549], [109.20914754900011, 0.7553974630000297], [109.20674095000003, 0.7554630910000419], [109.20481550200005, 0.7559316590000869], [109.20289328300008, 0.755846073000022], [109.20180986700005, 0.7569690820000368], [109.20183047600007, 0.7580743940000971], [109.20055173400004, 0.7586885800001113], [109.20001595700003, 0.7594484400000105], [109.19864091300003, 0.7601564660000619], [109.19803900600006, 0.7607981880000452], [109.19708530200002, 0.7610582100000656], [109.19576644700005, 0.7633203670000981], [109.19438304800008, 0.7639454970000408], [109.19288885400009, 0.7637273140000183], [109.19174839100005, 0.7642075170000489], [109.19110151600009, 0.7656182210000644], [109.1909631130001, 0.7669904910000973], [109.19051842100006, 0.7680276960000292], [109.19050336800007, 0.7691750620000164], [109.18947603400007, 0.770190025000062], [109.18821599200008, 0.7704057610000596], [109.18754978500002, 0.7699545960000336], [109.18686881600007, 0.7699799580000004], [109.18502583700008, 0.7708809280000288], [109.18439963300006, 0.7705800790000943], [109.18364585100004, 0.7705577540000235], [109.18189725800005, 0.7721589109999876], [109.17991962200001, 0.7728802000000705], [109.17828850300006, 0.7722599990000028], [109.17686082900006, 0.7727652490000629], [109.17674814100006, 0.7699278760000432], [109.17637618500002, 0.7689293760001163], [109.17242938600005, 0.769183430000087], [109.17169379700002, 0.7694643040000564], [109.17043809700004, 0.7705209110000837], [109.16986115499999, 0.7718945940000559], [109.16782090600012, 0.7719755720000059], [109.16507666000008, 0.7728713550000492], [109.16294455700006, 0.7727636430001077], [109.16105953800006, 0.7736633480000314], [109.15894503600008, 0.7737478500000954], [109.15935485400006, 0.7754307390000719], [109.15926625100009, 0.7762745459999891], [109.15873237300006, 0.7772635000001031], [109.15743220400013, 0.7787608520000937], [109.15659288200006, 0.7811870240001078], [109.1546183140001, 0.7834490990000447], [109.15418903200002, 0.7820646689999826], [109.15339963800008, 0.7814750810000497], [109.15266693200003, 0.7823079880000421], [109.15156617000008, 0.7828565230000422], [109.1512938280001, 0.7844465830000651], [109.15208829000002, 0.7883829730000684], [109.15066318600006, 0.7884357190000806], [109.14902692300004, 0.7876914910000536], [109.14724948200005, 0.7859359740000187], [109.14630061700005, 0.785457968000081], [109.1456098780001, 0.7856054220000246], [109.1435080190001, 0.7869559530000352], [109.1419300540001, 0.7872959880000145], [109.14212380600006, 0.7896628170000035], [109.14424941000007, 0.7923461470000674], [109.14472371200006, 0.7933795320000385], [109.14484673500002, 0.7944210510000609], [109.14412116300011, 0.7953450130000377], [109.14497420100008, 0.7957111700000468], [109.14548487900007, 0.7993339610000376], [109.14519956000008, 0.8001861750000288], [109.14526126400003, 0.8014406599999973], [109.14420330900008, 0.8023401560000814], [109.14442440500007, 0.8042799580000874], [109.14376409800006, 0.8072665530000194], [109.14357852200007, 0.8106847070000427], [109.14288371000005, 0.8117296400000811], [109.14285136300003, 0.812607807000088], [109.14196833200006, 0.8135048240000557], [109.1409994370001, 0.8154336820000445], [109.14047396700006, 0.8158962910000405], [109.14054561600004, 0.8162254860000999], [109.14011822100011, 0.816093910000049], [109.13954610800002, 0.8165136810000533], [109.13867547200002, 0.8182521100000955], [109.1382362950001, 0.8233534690000326], [109.13831526000006, 0.8266618090000293], [109.13910556700007, 0.8288926460000461], [109.14161088400007, 0.8311777440000228], [109.14219388100008, 0.8320045820000459], [109.14266805700005, 0.834527992000023], [109.14332262200013, 0.8356523610000615], [109.14481457100003, 0.8368216860000892], [109.15328335600005, 0.8417190530000234], [109.15447069200006, 0.841807749000079], [109.15617070700003, 0.8408086900001059], [109.15984103500004, 0.8401183920000115], [109.16079024800007, 0.8431669970000115], [109.16346520900007, 0.8455562240000773], [109.16428517500005, 0.8459217790000366], [109.16546899300003, 0.8470204880000836], [109.16728511300002, 0.8481828510000682], [109.16875060400012, 0.8516631050000782], [109.16976133100009, 0.8518912860000398], [109.17041108800002, 0.8527431000000867], [109.17126449100003, 0.8528941010000572], [109.17195188100006, 0.8534101930000375], [109.17247776500005, 0.8529514780000085], [109.1733960970001, 0.8534240630000305], [109.17347798100012, 0.8541143770000375], [109.17236077900004, 0.855285737000056], [109.17217133200009, 0.8559400350001027], [109.1737170970001, 0.8562414840000869], [109.17482257300009, 0.856894444000023], [109.17409992500006, 0.8576377520000626], [109.17414718800006, 0.8592229860000415], [109.17369822200004, 0.860400242000015], [109.17231966700011, 0.8622817020000788], [109.1709788800001, 0.8634560260000761], [109.17057105300003, 0.8642557390000754], [109.17016841300001, 0.8661998249999918], [109.16950170700001, 0.8670350950000909], [109.17014953200005, 0.8694862310000389], [109.16979310600006, 0.872080840000045], [109.16988101600005, 0.8729499940001055], [109.17070341900005, 0.8745098270000256], [109.17047829600008, 0.8755111920000118], [109.170815427, 0.8763329870000618], [109.17163973700008, 0.8769435330000412], [109.17179066200003, 0.8774623230000671], [109.17250104900002, 0.8781926230000963], [109.17313620500008, 0.8784695420000936], [109.17345906000006, 0.8792999080000534], [109.17424026200004, 0.8796226990000271], [109.17480693000003, 0.8810697610000311], [109.17562224000008, 0.8817288650000314], [109.17577022600007, 0.8827892470001046], [109.17736067600003, 0.8853209030000535], [109.17730193600005, 0.8865554530000601], [109.17675579600008, 0.88699961900004], [109.17725838500009, 0.8875660830000136], [109.17685502700003, 0.8883518120000105], [109.176402882, 0.8885795460001127], [109.17683506800006, 0.889342736000021], [109.17689636000007, 0.8902329430000471], [109.17717006100007, 0.8904601380000159], [109.17688032800008, 0.8910200440000686], [109.17706587300006, 0.8925868020000287], [109.17738389400009, 0.8929966390000104], [109.17825187200005, 0.8930329180000811], [109.1782824220001, 0.8932103490001069], [109.17744471000006, 0.8955030660000922], [109.17828026700009, 0.8982642260000233], [109.17871393000009, 0.8980754740000378], [109.17879276000004, 0.8982347190000688], [109.17844026100009, 0.8988295190000777], [109.17869859200006, 0.8996662310000296], [109.17846196700002, 0.8999858480000071], [109.17917645500007, 0.8999451900000182], [109.17939671300009, 0.9001375480000355], [109.17877330200011, 0.9004151730000913], [109.17840197500003, 0.9008838100000531], [109.17929684700009, 0.9019547060000193], [109.17921869300002, 0.9024628530000527], [109.1796393860001, 0.9026360280000816], [109.179195915, 0.902840073000089], [109.17923121200008, 0.9033795440000496], [109.17968417100008, 0.904133594000001], [109.17930941000006, 0.9041918630000261], [109.17918435200002, 0.9044762190000171], [109.17982676700007, 0.9059047980000905], [109.18071891700006, 0.9069917770000551], [109.17946850800008, 0.9079583400000928], [109.1787098620001, 0.9079848200000633]]}}, {"type": "Feature", "properties": {"id": 3, "nama": "Batas Administrasi"}, "geometry": {"type": "LineString", "coordinates": [[109.17551493000008, 0.9733897200000179], [109.17564022600006, 0.97398587400005], [109.17538759700003, 0.9750365320000292], [109.1743752200001, 0.9762847950000157], [109.17334348500009, 0.9787868460000908], [109.17296914000012, 0.9791576260000383], [109.17181486500009, 0.9783607930000109], [109.17109569000009, 0.9772261700000122], [109.17076430300003, 0.9770891150000409], [109.16880262600007, 0.9770738210000189], [109.16734912000007, 0.9782746520000778], [109.16490960700011, 0.9774240650000436], [109.16368227100008, 0.9759645800000776], [109.16513358700008, 0.9750962129999934], [109.16667384600007, 0.974622685000071], [109.16688597300003, 0.9738007550000987], [109.16575328000002, 0.9729489770000548], [109.16265906700006, 0.9717941390000711], [109.16220656200001, 0.9720436180000185], [109.16138651100002, 0.9734391950000258], [109.16164996600006, 0.9759171810000637], [109.16017175600005, 0.9772148340000513], [109.15763378000011, 0.9777661770000172], [109.15488916000004, 0.9795912820000368], [109.15381831500008, 0.9795354590000365], [109.15130290100005, 0.9788701900000589], [109.15044287100004, 0.9792704240000454], [109.14946708800004, 0.980646031000088], [109.14930971400007, 0.9835284030000118], [109.14978259100012, 0.9856207170001134], [109.14894744800003, 0.9876111090000421], [109.14822833900004, 0.9880339620000349], [109.14717167800009, 0.9873842630000134], [109.14673017200006, 0.9873724670000144], [109.1455949020001, 0.9889569770000222], [109.14439567200009, 0.9895570090001087], [109.14416307900002, 0.98992079000001], [109.14461613700003, 0.9905639070000198], [109.14614269900004, 0.991010937000059], [109.147765296, 0.9924108280000681], [109.14970988100005, 0.9918021220000632], [109.15049032200005, 0.9919477620000343], [109.15069855500005, 0.9924379200000004], [109.15052654300003, 0.993027363000099], [109.14955638900005, 0.9938198690000348], [109.14951818000009, 0.9950374340000572], [109.14873825200004, 0.9953569830000291], [109.1489880140001, 0.9964411310000258], [109.14812089300003, 0.9975727470000422], [109.14795511200008, 0.9982715340000397], [109.148327759, 1.000242542000052], [109.14712569800011, 1.001193585000049], [109.14665812500006, 1.0019709760000666], [109.14622336800005, 1.0042969170000475], [109.14615032200005, 1.0063856980000345], [109.14677801900002, 1.0084048010000295], [109.14656187900009, 1.009356402999984], [109.14554395400006, 1.010334671000102], [109.14279439200003, 1.0114679240000761], [109.14070797100005, 1.0115209760000248], [109.13765212400008, 1.0102148340000454], [109.13598565400004, 1.010315600000034], [109.13414809200006, 1.011135141000075], [109.13373689900006, 1.0114943410000414], [109.1335990900001, 1.012916188000002], [109.13211283000005, 1.0159897580000248], [109.13085892200004, 1.0172617510000208], [109.12925254300009, 1.0183142580000641], [109.12892470900006, 1.0182145989999896], [109.12833924500002, 1.0170025719999813], [109.1269628530001, 1.0164773070000415], [109.12546996800003, 1.0154523820000598], [109.12294508300002, 1.0125550780000552], [109.11992340500002, 1.0104758270000573], [109.11565011500004, 1.0102423920001051], [109.11364624000005, 1.0113036980000771], [109.11164712500003, 1.0119015830000748], [109.10977838100004, 1.0119938940000743], [109.10789853000001, 1.0117251380000418], [109.10750377900004, 1.0108440030000558], [109.10749978100007, 1.0099917620000625], [109.10816621800005, 1.0070827849999802], [109.10792504900009, 1.0046932110000633], [109.1076557660001, 1.0043223180000176], [109.10503459300011, 1.0048949760000596], [109.10439883900008, 1.0052336910000186], [109.1033320650001, 1.005271497000038], [109.09724818900006, 1.0053357500000253], [109.09572148300003, 1.0046001710000922], [109.09541422000011, 1.0038924340000648], [109.09631401400013, 1.0013294800000132], [109.09771543800008, 0.9940817830000341], [109.09725273800008, 0.9923685000000297], [109.0958339260001, 0.9912963860000517], [109.09112163100012, 0.9902797800000478], [109.08915400100003, 0.9902842000000582], [109.08823973900006, 0.99063023600009], [109.08708165000007, 0.9930489540001091], [109.08525699500008, 0.9987818460000746]]}}, {"type": "Feature", "properties": {"id": 4, "nama": "Batas Administrasi"}, "geometry": {"type": "LineString", "coordinates": [[108.99267750800003, 0.872266257000021], [108.9888816530001, 0.8725731250000095], [108.98348967000001, 0.8739442290000348], [108.9822217780001, 0.8749658150000954], [108.98098693800006, 0.8754838150000559], [108.98025815500007, 0.8762166920000318], [108.98015304400008, 0.8772214590000331], [108.97852543800006, 0.8789435550000562], [108.97707419100006, 0.8800425420000373], [108.97616282900006, 0.8817161530000455], [108.97565208900008, 0.8833533180000579], [108.97089438900007, 0.8842599900000252], [108.97063624100011, 0.886243752000027], [108.96819302000002, 0.8865719590000047], [108.96241035300002, 0.8893086610000438], [108.96203583600003, 0.8896916420000238], [108.96141460300005, 0.8913670069999995], [108.96021302500012, 0.8917136490000814], [108.95765662800007, 0.8939733269999977], [108.95640385400007, 0.8946722760000085], [108.95584545700005, 0.895364105000052], [108.95519417600008, 0.8956405900000135], [108.95414329800008, 0.8970991229999896], [108.95268738700005, 0.8967890990000065], [108.94900014500006, 0.8994998310000284]]}}, {"type": "Feature", "properties": {"id": 5, "nama": "Batas Administrasi"}, "geometry": {"type": "LineString", "coordinates": [[109.05453260100008, 1.104249360000054], [109.03875805900007, 1.107907406000031], [109.03642487800002, 1.1080983060000165], [109.02862027400006, 1.1053804970000307], [109.01719631100003, 1.0994214350000924], [109.01537923400006, 1.0994208320000425], [109.01430111700003, 1.097924206000112], [109.01354872900004, 1.0974791890000617], [109.01222663800007, 1.0971510000000855], [109.01171886600007, 1.0950308469999896], [109.01019024000007, 1.0920049840000061], [109.00981950500004, 1.0902437580000317], [109.0088435210001, 1.0892731060000997], [109.00503457900008, 1.0885240770000308], [108.99999999999999, 1.0881839088809357]]}}, {"type": "Feature", "properties": {"id": 6, "nama": "Batas Administrasi"}, "geometry": {"type": "LineString", "coordinates": [[109.06956971700001, 1.099280313000051], [109.06432759900007, 1.101688861000028], [109.05453260100008, 1.104249360000054]]}}, {"type": "Feature", "properties": {"id": 7, "nama": "Batas Administrasi"}, "geometry": {"type": "LineString", "coordinates": [[109.03294291400005, 0.8986728160000794], [109.03431270200005, 0.9162180470000507], [109.0333353340001, 0.9213744820000151], [109.03043125600007, 0.9240808720000331], [109.02731446100002, 0.9260807340000348], [109.02335516200007, 0.927791097000064], [109.0196435070001, 0.9321840550000076], [109.01929927100004, 0.933716711000077], [109.01785138400005, 0.9347654760000772], [109.01047955300002, 0.937624271000093], [109.00280579700005, 0.9401432820000615], [108.99832633100006, 0.93998629900004], [108.99625873400005, 0.9402812550000199], [108.99486237900007, 0.9360019850000683], [108.99156440800003, 0.9298352290000871], [108.98396346700005, 0.9295011990000717], [108.98285640800012, 0.9286074560001083], [108.97598419500011, 0.9296044880000913], [108.97318841400008, 0.9297527290000112], [108.96541628200005, 0.9310289000000864]]}}, {"type": "Feature", "properties": {"id": 8, "nama": "Batas Administrasi"}, "geometry": {"type": "LineString", "coordinates": [[109.17532922730011, 1.250000000000096], [109.18201447700007, 1.2470252630000793], [109.20121230400008, 1.23932539700008], [109.20479411200006, 1.237247869000047], [109.20691410900005, 1.2342561750000485], [109.21080630400003, 1.2296834730000654], [109.2113781570001, 1.2285795790000336], [109.21180708700007, 1.2260206150000457], [109.21295377700008, 1.2246147739999884], [109.2147412580001, 1.2232875030000372], [109.21784904200011, 1.2223127660000337], [109.22228958800008, 1.2218764360000804], [109.2267596410001, 1.2202841000000468], [109.22973922400007, 1.2199235040000538], [109.23285776100009, 1.2184315250000637], [109.23328143200006, 1.217864009000003], [109.23384795600003, 1.2145995610000853], [109.23425887400002, 1.2139158950000954], [109.23594313900011, 1.2117158750000527], [109.23767272800004, 1.2102739630000308], [109.23844615700008, 1.208646418000015], [109.24251727000005, 1.2047566110000467], [109.24360560800004, 1.203526461000049], [109.24489836800007, 1.2014986670000454], [109.24668481200008, 1.1993866560000903], [109.24749915100004, 1.1988631100000262], [109.24795981100006, 1.198128541000088], [109.24806287000006, 1.196111417000079], [109.24844303900007, 1.1944521900000176], [109.2489929720001, 1.1938317970000227], [109.24999999999993, 1.1934381010371702]]}}, {"type": "Feature", "properties": {"id": 9, "nama": "Batas Administrasi"}, "geometry": {"type": "LineString", "coordinates": [[109.17323811300008, 0.9113733470000334], [109.17301634200003, 0.9115323810000469], [109.17244780500006, 0.9103430850000542], [109.17252641800007, 0.9093420310000937], [109.17170956800008, 0.908380787000052], [109.17148717000006, 0.9073604000000906], [109.1710206110001, 0.9069209790000592], [109.16997860400004, 0.9066251060000035], [109.16957693100002, 0.9059728460000365], [109.16831213500008, 0.9054524770000576], [109.16721136800004, 0.9012536020000965], [109.16635317200009, 0.9005555560000715], [109.16559237400011, 0.9003765690000947], [109.16505927500006, 0.8996559280000653], [109.1644640680001, 0.8993104239999887], [109.164041001, 0.8976237350000531], [109.16213873100008, 0.8965404180000363], [109.15985631200006, 0.8936541690000581], [109.15856105900009, 0.8930889680000114], [109.1577656490001, 0.8930645950000375], [109.15620554700007, 0.8922125660000617], [109.15542211000009, 0.8925523430000197], [109.15260860600009, 0.892577290000041], [109.15123312300005, 0.8929457650000643], [109.1485060990001, 0.8929127430000854], [109.14673763500006, 0.8933522170000323], [109.14515838200005, 0.8812846400000467], [109.145196592, 0.8781835980000601], [109.1444687700001, 0.876621506000042], [109.14329295800006, 0.876378918000043], [109.1407149650001, 0.8740911540000234], [109.13779732700002, 0.8724090080000195], [109.13684838800002, 0.8698351260000408], [109.13652798900006, 0.8680814040000655], [109.13598101800001, 0.8670107750000327], [109.13427156800006, 0.8651698220000341], [109.13278937800008, 0.8653732120000761], [109.13157352300001, 0.865157580000087], [109.13105612900002, 0.8647217479999973], [109.13032003100004, 0.8635083930000569], [109.13044101400001, 0.8625132510000526], [109.12994911200009, 0.8603489330000329], [109.12801567600008, 0.8602459710000403], [109.12693167600008, 0.8592226730000156], [109.1263242300001, 0.8581224170000183], [109.12447880100008, 0.8572696560000708], [109.12271797500006, 0.8570261979999998], [109.12085092900011, 0.8556027799999981], [109.11784197000011, 0.8539665230000608], [109.11611149400002, 0.8532847510000501], [109.11487078900004, 0.8535129470001017], [109.11393970900009, 0.853402216000088], [109.11251666000003, 0.851292592000064], [109.11330619600008, 0.8496113560000467], [109.11336399400007, 0.849013169000024], [109.11145381300011, 0.8489896170000293], [109.11156491700007, 0.84884995600002], [109.11082183000005, 0.848003413000054], [109.11003709100004, 0.8475616790000089], [109.10889498300004, 0.8476145040000276], [109.10624189200009, 0.8482719500000684], [109.10545583700006, 0.8472708760000174], [109.1027942140001, 0.8467930450000054], [109.10097838100005, 0.8442885999999987], [109.10028313100008, 0.8437567620000479], [109.09681340300006, 0.8427287110000741], [109.09506921900007, 0.8426545380000654], [109.09402530900012, 0.8433612370000958], [109.0927982740001, 0.8430415760001146], [109.09023005700007, 0.843154846000072], [109.08564389500003, 0.8421460990000078], [109.08289532300007, 0.8407212610000663], [109.08122445800004, 0.8408571980000339], [109.07726141700005, 0.840443536000091], [109.07568563900004, 0.8414786420000269], [109.07389365700001, 0.8421869460000124], [109.07083355800005, 0.8407218890000294], [109.06975147000013, 0.8412180530000484], [109.06807976, 0.8428210209999847], [109.06747053800005, 0.8428521650000746], [109.0655614080001, 0.8418566600000403], [109.06343284900001, 0.8423469710000191], [109.06121863800004, 0.8423222800001078], [109.05639775700004, 0.8405205390000674], [109.0560303120001, 0.8414600770000007], [109.05501562400008, 0.8428140760000318], [109.05385629900007, 0.8437143330000012], [109.0531769980001, 0.8438598120000478], [109.050997818, 0.8435541140000673], [109.04968153700007, 0.8428826770000235], [109.04786610700005, 0.8426128069999876], [109.04406193500006, 0.8410360419999989], [109.04203125300009, 0.8399105920000487]]}}, {"type": "Feature", "properties": {"id": 10, "nama": "Batas Administrasi"}, "geometry": {"type": "LineString", "coordinates": [[109.0422386390001, 1.2036131180000247], [109.03562335600004, 1.2049823430000721], [109.02728235100003, 1.2061728260000741], [109.02206897900005, 1.2065939840000155], [109.00366268000008, 1.2071302050000625], [108.99999999999999, 1.20742752580324]]}}, {"type": "Feature", "properties": {"id": 11, "nama": "Batas Administrasi"}, "geometry": {"type": "LineString", "coordinates": [[109.08172723100006, 1.2117724140000234], [109.09217147100011, 1.1888977339999833], [109.10016427600002, 1.1747884480000863], [109.10365459500007, 1.1694089020000469], [109.10432778900007, 1.166844910000087], [109.10589412899999, 1.1542564899999945], [109.10672694100008, 1.1517635410000509], [109.10869937000011, 1.1474191210000377], [109.11174648800008, 1.131613698000045], [109.11288733100005, 1.1278285970000361], [109.11770128100002, 1.124931230000115], [109.11907705000007, 1.1237084360001042], [109.12325644900002, 1.1212637670000696], [109.1248439190001, 1.1197750810000855], [109.12696147600006, 1.1163181870000543], [109.1279139980001, 1.1153611270000034], [109.13071806300012, 1.1134475740000376], [109.1398647190001, 1.1103903820000376], [109.14051760600003, 1.1103907950000718], [109.15359667100003, 1.1037943940000687], [109.1552139830001, 1.1015921370001074], [109.15745671900002, 1.0977381170000804], [109.1571001330001, 1.096453670000031], [109.15746108000003, 1.0958956050000417], [109.15687836600004, 1.0941813150000428], [109.15685180500007, 1.0926594340000655], [109.15813566700007, 1.0901454850000718], [109.1601240670001, 1.0884539370000894], [109.16073947100004, 1.0869357020000585], [109.16010022600008, 1.0850976750000356], [109.16010553600007, 1.084337558000115], [109.16360354400005, 1.078629625000083]]}}, {"type": "Feature", "properties": {"id": 12, "nama": "Batas Administrasi"}, "geometry": {"type": "LineString", "coordinates": [[109.08384227660974, 1.250000000000096], [109.08987500100008, 1.2426637499999842], [109.09281396900008, 1.238415099000079], [109.10207347800007, 1.2281966570000584], [109.09659187800011, 1.2231767970000256], [109.08754813200002, 1.215636163000056], [109.08172723100006, 1.2117724140000234]]}}, {"type": "Feature", "properties": {"id": 13, "nama": "Batas Administrasi"}, "geometry": {"type": "LineString", "coordinates": [[109.2265632190001, 1.0124978400000266], [109.23610684100007, 1.0240808210000623], [109.24999999999993, 1.0347823673783623]]}}, {"type": "Feature", "properties": {"id": 14, "nama": "Batas Administrasi"}, "geometry": {"type": "LineString", "coordinates": [[109.06956971700001, 1.099280313000051], [109.07011239100005, 1.102457828000059], [109.07007689100006, 1.1034511610000912], [109.06911161200011, 1.1103578380000094], [109.06742622500012, 1.1161464870000586], [109.06710015800004, 1.1162153170000693], [109.06144516100004, 1.1255885030000528], [109.05739694800012, 1.129035712000082], [109.05564513200002, 1.1299215480000129], [109.05245225700008, 1.1339801570000922], [109.05128482600013, 1.1360890850000587], [109.04890173400013, 1.1430451600000673], [109.046035325, 1.1473211840000168], [109.04495638000009, 1.1472324750000489], [109.04426693500007, 1.147745430000036]]}}, {"type": "Feature", "properties": {"id": 15, "nama": "Batas Administrasi"}, "geometry": {"type": "LineString", "coordinates": [[109.01822472900004, 0.7563777950000521], [109.01764258400001, 0.7578330210001099], [109.01727081700007, 0.7574320610000633], [109.01655310000011, 0.7574739190000628], [109.01705558400003, 0.758407559000041], [109.01700824400011, 0.7588294200000405], [109.01663634300007, 0.7587448700000614], [109.01623329200002, 0.758027485000035], [109.0158036380001, 0.758055986000084], [109.01584336900001, 0.7599584250000184], [109.015659741, 0.7605437000000386], [109.015096338, 0.7610958410000705], [109.01449647300002, 0.7611825720000525], [109.01325666500011, 0.7601998110000956], [109.01258997300002, 0.7603484750000504], [109.01235904400001, 0.7612883650000128], [109.01174983300005, 0.7617613850000708], [109.01183206600011, 0.7623639150000088], [109.01291655200005, 0.7621943520000123], [109.01295682500009, 0.762904976000101], [109.01339416400003, 0.7630989730000763], [109.01382913400006, 0.7627405860000884], [109.01541534600003, 0.7622943840000289], [109.01588792600005, 0.7627560360000345], [109.01545413400004, 0.7633833830000718], [109.01501987799999, 0.7650416980000578], [109.01442911300005, 0.7652615910000442], [109.0145402110001, 0.7657534010000582], [109.01420298600009, 0.7659705460000836], [109.01388639, 0.7657422010000197], [109.01290624000008, 0.7658508060000351], [109.01215468700006, 0.7654074870000365], [109.01181520600005, 0.7642025700000836], [109.01068166200005, 0.7644050750000524], [109.01083987300008, 0.7646971090000569], [109.01155487000008, 0.7648836860000401], [109.01158454400006, 0.7655917910000092], [109.0121357560001, 0.7667045180000613], [109.0115571410001, 0.7671841330000433], [109.01127225600007, 0.7668735850000168], [109.01083052300002, 0.7668968690000781], [109.01059840200008, 0.7678431120000333], [109.00888464500004, 0.7683490380000606], [109.00874416900005, 0.76934734100006], [109.00911733600012, 0.769800556000078], [109.00648149600006, 0.7699491510000271], [109.00531857500003, 0.769568207000038], [109.004249056, 0.7688464320000037], [109.00252738000002, 0.7669387040000757], [109.000334202, 0.7658656550000202], [108.99952529600004, 0.7640472870000252], [108.99740816700003, 0.7650909270000454], [108.99515383100002, 0.7647096340000274], [108.99465329400009, 0.7648817410000568], [108.99391096100004, 0.7656583370000085], [108.99323681000003, 0.7655275040000191], [108.991837763, 0.7685766900000672], [108.99147657100005, 0.7687293409999967], [108.99007761600004, 0.7677694720000687], [108.98738648900003, 0.7677521480000564], [108.98613449, 0.766587882000092], [108.98512249800002, 0.7661722909999895], [108.98433794400003, 0.7661314850000771], [108.98069850700008, 0.7672625780000502], [108.98086485900009, 0.7679757799999969], [108.98045469400007, 0.7703424350000603], [108.97884281000003, 0.7697837660000211], [108.97723307300006, 0.769672464000049], [108.97545426300006, 0.7699136190000182], [108.97391553100002, 0.7704090420000647], [108.97283905900012, 0.7704292080000457], [108.97027563400012, 0.7697087860000345], [108.964674013, 0.7705638110000805], [108.96559558700005, 0.7723076360000363], [108.96689564200005, 0.7735331090000024], [108.96737794700009, 0.7746992460000328], [108.96891882200003, 0.7771325330000138], [108.97071800200004, 0.7793740430001144], [108.97176898200004, 0.7800174300000577], [108.97241447300007, 0.7833671240000122], [108.97346634900006, 0.7845619770001093], [108.97420218300002, 0.7859715150000284], [108.97371712100004, 0.7864674860000314], [108.97360706000008, 0.7870952740000163], [108.97186006200012, 0.7873826500000796], [108.97100292400008, 0.7880302670001065], [108.9708228740001, 0.7883416070000209], [108.97098963400005, 0.7897288040000454], [108.97064111700007, 0.7898764990000977], [108.96997046100009, 0.7915095130000331], [108.96879175300009, 0.792674110000025], [108.968592189, 0.7935850949999939], [108.96760985100009, 0.7942906920000219], [108.96688182800007, 0.7956013130000166], [108.96632225000005, 0.7958948480000565], [108.96527640100001, 0.7997334390000503], [108.96284530900004, 0.8031763280000774], [108.96292555100011, 0.8038957100000914], [108.95966179100007, 0.8037926270000888], [108.95863177300002, 0.8041036700000674], [108.95720156300008, 0.8050017930000379], [108.95362687000006, 0.805592785000087], [108.95286249400006, 0.8059921860000046], [108.9518678310001, 0.8068078110000769], [108.951664818, 0.8074446170000087], [108.95101831400007, 0.8076593400000114], [108.95091078300005, 0.809073725000065], [108.95037060200012, 0.8102617890000445], [108.94825292300006, 0.8111209499999887], [108.94697851800004, 0.8126670740000179], [108.94501724200002, 0.8129748710000833], [108.9442925470001, 0.8140456630000408], [108.94260011100005, 0.8128618080000543], [108.94160740100007, 0.8116974140000792], [108.94130231500004, 0.810954740000092], [108.94138438000009, 0.8097476260000462], [108.94071506400005, 0.8089136650000555], [108.94061365900009, 0.8080959350000754], [108.94027900800002, 0.8076652850000592], [108.93824964700006, 0.8072155510000627], [108.93684073600011, 0.8058140840001009], [108.93318535400009, 0.8037896720000219], [108.93307713600011, 0.8030152150000696], [108.92876876200006, 0.8046733080000372], [108.92256776900008, 0.807526275000015], [108.91970093400002, 0.8091464000000386], [108.91726763100004, 0.8065516330000193], [108.91467097000013, 0.8077730080000016], [108.91305447300006, 0.8076493010000689], [108.91303409700005, 0.8067442430000575], [108.91201400300012, 0.8053438860000988], [108.91074661100006, 0.8013228900000229], [108.908778317, 0.7971723490000642], [108.9039028650001, 0.797849369000037], [108.90389035600005, 0.7985607550000111], [108.90274421200007, 0.7990463090000404], [108.89702001400012, 0.8039886180000515], [108.89624935500004, 0.8065813440000795], [108.89530347500002, 0.808726782000047], [108.89478801600009, 0.812116261000007], [108.89446250600007, 0.8129497400000467], [108.89347906400006, 0.8139679100000023], [108.89224456600006, 0.8146889840000675], [108.89011622500009, 0.8150860110000551], [108.8903246230001, 0.8161490659999941], [108.89082249000008, 0.8170801050000236], [108.89015581800007, 0.821327751000112], [108.88943554200007, 0.8221196820000891], [108.88826369600011, 0.8223852410000347], [108.8874253320001, 0.8228587110000412], [108.88707737400009, 0.8236089990000366], [108.88700855900008, 0.8249858010000004], [108.88609326000002, 0.8280882800000171], [108.88528135700008, 0.8290488930000066], [108.88422109500002, 0.8297186880000922], [108.88240442200008, 0.8321678350000532], [108.88223121900005, 0.8332300110000972], [108.88242141100005, 0.8355620930000534], [108.88203695200005, 0.836557914000025], [108.88033360600006, 0.8391034170000538], [108.87812218500005, 0.8401992770000426], [108.87655650400009, 0.839982191000022], [108.87618148600006, 0.8396176230000556], [108.8763161470001, 0.8390159640000121], [108.87574900200008, 0.8391669250000682], [108.87547300700007, 0.8387574610000286], [108.87497228600002, 0.8394857510000691], [108.87380714100007, 0.8401555200000637]]}}, {"type": "Feature", "properties": {"id": 16, "nama": "Batas Administrasi"}, "geometry": {"type": "LineString", "coordinates": [[109.14565181378028, 1.250000000000096], [109.14150229300006, 1.2449517740001141], [109.13660845200006, 1.2420456630000913], [109.13056130400011, 1.2403003870000155], [109.12115586000003, 1.238220633000065], [109.11487124300007, 1.2358834900000453], [109.1049086327632, 1.250000000000096]]}}, {"type": "Feature", "properties": {"id": 17, "nama": "Batas Administrasi"}, "geometry": {"type": "LineString", "coordinates": [[108.99466084300009, 0.8832444710001113], [108.99582420400006, 0.8848573730000702], [108.99587252200007, 0.8862676960000542], [108.99672661500003, 0.8869218439999997], [108.99781755300006, 0.8882497560000928], [108.99771345800006, 0.8894832090000087], [108.99804269800003, 0.8901161000000606], [108.99787994600007, 0.8903357190000243], [108.9981475710001, 0.8908760770000583], [108.99798171200005, 0.8913473580000613], [108.99817206800009, 0.8918270490000495], [108.99770396300008, 0.8933840199999992], [108.99703355200003, 0.8942436110000678], [108.99695275800009, 0.894954865000031], [108.99642541700007, 0.8958334340000711], [108.99745008600003, 0.89800930800007], [108.99719885100002, 0.8984740030000609], [108.99686166500001, 0.9014574579999994], [108.99728470900003, 0.9019383720000889], [108.99717531700013, 0.9029772070000668], [108.99774522800003, 0.9032834140000006], [108.99699435300008, 0.9036907160000389], [108.99621545100011, 0.9046735220000883], [108.99593577300006, 0.9056995460000721], [108.99507404600008, 0.9059188470000983], [108.99482929400008, 0.9065879500000378], [108.99363158100002, 0.9069544099999831], [108.99310869500009, 0.9074052960000749], [108.99265871800007, 0.9062380700000432], [108.99090458600007, 0.906985529000071], [108.99038694000005, 0.90746176700004], [108.98938097100003, 0.9076932920000118], [108.98938897700008, 0.9099919050000409], [108.99002766100007, 0.9101825080000907], [108.9900976660001, 0.9106553620000462], [108.99090735000003, 0.9116063470000384], [108.99097006600006, 0.9121294910000692], [108.99067331200011, 0.9127734060000563], [108.99155581100004, 0.9140981420000642], [108.99143105200001, 0.91442656700006], [108.99064653700012, 0.9148370850000092], [108.9908513300001, 0.9156454370000127], [108.99071404800011, 0.915960951000006], [108.98984758000009, 0.9160676960000451], [108.98793835900004, 0.9176698069999993], [108.98453195200001, 0.9176289500000827], [108.98109726800004, 0.9186684730000287], [108.97954418000006, 0.9198774830000538], [108.9782210960001, 0.9204139880000355], [108.97537382100006, 0.9204398100000404], [108.97438908300003, 0.9200076790000793], [108.97207287500005, 0.9197823930000908], [108.97070456300008, 0.9193515570000592], [108.96767159300005, 0.919327407000015], [108.96553644100004, 0.9203015950000619], [108.96343173000007, 0.9232276600000482], [108.96174075700013, 0.9245695270000525]]}}, {"type": "Feature", "properties": {"id": 18, "nama": "Batas Administrasi"}, "geometry": {"type": "LineString", "coordinates": [[109.04203125300009, 0.8399105920000487], [109.040458685, 0.8373218790000863], [109.04015852000003, 0.8362541420000262], [109.04048407000006, 0.8352930720000877], [109.04264821600006, 0.8320490720000855], [109.04170427600003, 0.8289752950000455], [109.04142588900001, 0.8263137600000974], [109.04119388100008, 0.8259311690000608], [109.03943181500004, 0.8249050530000694], [109.03736879000004, 0.8242240740000355], [109.04019014200007, 0.8194951030000901], [109.04009754600006, 0.8189153949999977], [109.03874729100006, 0.8166194550000121], [109.03764380900007, 0.8129820030000516], [109.03831496700009, 0.8079102900000805], [109.03823546000008, 0.8064582750001108], [109.03767092200009, 0.8051241230000343], [109.03387194900009, 0.803204508000011], [109.03539576300005, 0.8023048440000906], [109.03643349100011, 0.8002281930000414], [109.03652198700006, 0.7996751400000228], [109.03609932600008, 0.7987080170000276], [109.03608099000007, 0.7973694290000282], [109.03409595700006, 0.7955880550000742], [109.03259706200004, 0.7937756850000426], [109.03179571900007, 0.7932599210000895], [109.0303823290001, 0.7929635730000832], [109.03017879300005, 0.7907141900000418], [109.03049983200006, 0.7879571910000109], [109.03010749500001, 0.7866773110000729], [109.03003897400002, 0.784943880000089], [109.02921546600001, 0.7830588570000856], [109.02890063300008, 0.7808173090000707], [109.02915911500006, 0.7760402010000504], [109.02809899, 0.7730087120000455], [109.02768873700008, 0.7698277320001061], [109.02784293500005, 0.7689090200000308], [109.02863211500006, 0.7678807430000383], [109.02801853100001, 0.7645848190000919], [109.02749830500004, 0.7632163940000218], [109.02700777200005, 0.7573607150000221], [109.02363787700001, 0.7542878830000603], [109.02275924800006, 0.7540010820000447], [109.0216518730001, 0.7544834370000757], [109.02080792600007, 0.7554089660000933], [109.01822472900004, 0.7563777950000521]]}}, {"type": "Feature", "properties": {"id": 19, "nama": "Batas Administrasi"}, "geometry": {"type": "LineString", "coordinates": [[109.16360354400005, 1.078629625000083], [109.15958956300003, 1.0773931720000078], [109.15627659400009, 1.0778966530000105], [109.13746678800003, 1.0826961110001037], [109.13057076600009, 1.08412471100009], [109.12632136300005, 1.084426519000015], [109.12268081800009, 1.0855067470000428], [109.11119305500003, 1.0897582130000032], [109.07731735400006, 1.0971458240000125], [109.06956971700001, 1.099280313000051]]}}, {"type": "Feature", "properties": {"id": 20, "nama": "Batas Administrasi"}, "geometry": {"type": "LineString", "coordinates": [[108.99267750800003, 0.872266257000021], [108.99192623900004, 0.8739447750000799], [108.99337524800004, 0.8785628010000828], [108.99490334500008, 0.8805278380000452], [108.99476801500008, 0.8815999770000253], [108.99423102300005, 0.8827423540000439], [108.99466084300009, 0.8832444710001113]]}}, {"type": "Feature", "properties": {"id": 21, "nama": "Batas Administrasi"}, "geometry": {"type": "LineString", "coordinates": [[109.08172723100006, 1.2117724140000234], [109.07925832600007, 1.2101865309999909], [109.06855931100007, 1.2046820070000024], [109.06294248600003, 1.2026381010000868], [109.05958933900006, 1.2019066030000474], [109.05725275700009, 1.2016618970000508], [109.0537427340001, 1.2020577960000338], [109.05201966599999, 1.2018679770000489], [109.05081068000005, 1.2021760440000477], [109.04714254700005, 1.2024873220000458], [109.0422386390001, 1.2036131180000247]]}}, {"type": "Feature", "properties": {"id": 22, "nama": "Batas Administrasi"}, "geometry": {"type": "LineString", "coordinates": [[108.99999999999999, 1.1251901786241696], [109.00163312100001, 1.12595749600003], [109.00235501700006, 1.1268700910000433], [109.00237204700005, 1.1280152700000272], [109.00130719000005, 1.130344382000004], [109.00126004900005, 1.1322033630000732], [109.00216026600002, 1.1338566200000848], [109.00377079600005, 1.1351836630000172], [109.00470709800007, 1.1355448670000605], [109.00571594500005, 1.1355317890000443], [109.00643835800005, 1.1352694250000077], [109.00731142200009, 1.1345555670000955], [109.00792388700005, 1.133343077000049], [109.00804959200005, 1.1320425790000037], [109.00675709400005, 1.1288582100000504], [109.00684396600003, 1.12746259700004], [109.00745579200013, 1.126472669000023], [109.0083281270001, 1.1258458010000254], [109.00924467300008, 1.1256059400000744], [109.010492195, 1.1257320970000322], [109.01191823200004, 1.1265279050000636], [109.012465262, 1.127287228000096], [109.01262066900007, 1.1280548700000175], [109.01228883700007, 1.129043440000011], [109.01010198400004, 1.1316075200000668], [109.0099277040001, 1.132558167000031], [109.01019022800007, 1.1332415029999936], [109.01096485500003, 1.1339010720000324], [109.0127305080001, 1.1348189020000348], [109.01446372600007, 1.1354169200000435], [109.01674090700001, 1.1357342710000111], [109.01740014700003, 1.136152761000087], [109.0179914080001, 1.1370211940000878], [109.0179548950001, 1.1394855690000654], [109.0184874210001, 1.140330517000077], [109.01950164500009, 1.1403829890000665], [109.02134111200006, 1.139771382000088], [109.02246520300007, 1.1401536690000107], [109.0229528300001, 1.1409470610000199], [109.02311250300006, 1.1433749750000004], [109.02360106300009, 1.1440784400000297], [109.02459684900005, 1.14432570000006], [109.02552909800009, 1.1438778920000452], [109.02751790000006, 1.1398737250000295], [109.02854733700006, 1.1387466260000316], [109.03330485900007, 1.1359415810000222], [109.0343540300001, 1.1355797470001043], [109.03564411000008, 1.1355703070000338], [109.03665391000006, 1.1362437539999775], [109.0369775250001, 1.1376428600000104], [109.03657759300005, 1.1389438510000076], [109.03485393900007, 1.1403735120000817], [109.0342230850001, 1.1412635550000054], [109.0341887230001, 1.1419834050000581], [109.03452324900006, 1.142964985000006], [109.03545962200009, 1.1434571780000518], [109.03679482500007, 1.143184271000031], [109.037562601, 1.142471013999991], [109.03869043000007, 1.140209590000019], [109.03956741400006, 1.1396396800001156], [109.04047033300007, 1.1397407270000386], [109.04118798100004, 1.140348089000021], [109.04131863500001, 1.141081005000089], [109.04097070900009, 1.1420613480000235], [109.0398308740001, 1.143566672000052], [109.03987079100003, 1.1446902670000263], [109.04063311700004, 1.1454850320000602], [109.04303896600007, 1.1464656590000182], [109.04426693500007, 1.147745430000036]]}}, {"type": "Feature", "properties": {"id": 23, "nama": "Batas Administrasi"}, "geometry": {"type": "LineString", "coordinates": [[109.1787098620001, 0.9079848200000633], [109.17909696800007, 0.909085925000042], [109.1794675620001, 0.9092922050000567], [109.18035940900008, 0.9089817310000363], [109.18141849900005, 0.9074371120000428], [109.18171601500006, 0.90758772300007], [109.18194002600004, 0.9083510819999923], [109.18280466800007, 0.9085331080000429], [109.18288922500005, 0.907621880000054], [109.18439816000003, 0.9051963150000901], [109.18666853100002, 0.9052168840000157], [109.18616217900005, 0.9043268180000901], [109.18723092900011, 0.9031333260000167], [109.1874594830001, 0.9032238510000461], [109.18745260800006, 0.9040241220000915], [109.18767120900011, 0.9041464870000908], [109.18836379500004, 0.9036075450000851], [109.18934184900006, 0.9035724890000267], [109.18985248900012, 0.9030759280000638], [109.18975731900007, 0.9027466650000875], [109.18905835000005, 0.9027313740000658], [109.18786023100004, 0.9012262550000543], [109.1873768040001, 0.8989452420000603], [109.18850143600007, 0.8978583900001063], [109.1875143710001, 0.8964580180000574], [109.18623096900006, 0.8956526480000342], [109.18608934400007, 0.89534010200002], [109.18708236800008, 0.8945053490000525], [109.1870858250001, 0.8950418560000344], [109.18850877600005, 0.8955556230000887], [109.18940286800004, 0.895586213000044], [109.19023054800005, 0.8959211770000479], [109.19089589100012, 0.8957454010000703], [109.19056614200011, 0.8944725750000941], [109.18915893400002, 0.8947131340000141], [109.1892446000001, 0.8929374060000832], [109.18797115100007, 0.8920754940000002], [109.188608017, 0.8909071590000543], [109.18965457700008, 0.8901074370000543], [109.19066236800008, 0.8877951890000517], [109.19047331400006, 0.8860931229999984], [109.19072732600003, 0.8854446219999872], [109.18970764300003, 0.8845041240000633], [109.18963022700002, 0.8829823080000914], [109.18997516000006, 0.8824625580000749], [109.19032217300008, 0.8824039530000221], [109.1905757410001, 0.8831549520000763], [109.19178767000001, 0.8833490760000622], [109.19243303900004, 0.881752051999996], [109.19488264500004, 0.8814101950000435], [109.19477539700004, 0.8810902570000394], [109.19401843900002, 0.8808225050000011], [109.19388424800012, 0.8805101390000019], [109.19443732500004, 0.8798438990000328], [109.19529621300005, 0.8797755700000636], [109.19552045000005, 0.8789113540000564], [109.19496465600007, 0.8776090790000417], [109.19413764200003, 0.8781910960000587], [109.19370641300006, 0.878003618000001], [109.19415576100002, 0.8760971940000921], [109.19569177700001, 0.8761070380000184], [109.1968221600001, 0.87559669800007], [109.19705786100006, 0.8745643880000991], [109.19670915500008, 0.873752180000043], [109.19694567600001, 0.8733374150000088], [109.19765158500007, 0.874509182000061], [109.1979406170001, 0.874397265000038], [109.19794212100004, 0.8727759420000041], [109.19821788000003, 0.8719382670000613], [109.19789962400007, 0.8715243090000939], [109.19690363700009, 0.8717292729999997], [109.19642837800002, 0.8711954430000617], [109.19632780700006, 0.87059022299999], [109.19711421700002, 0.8709520730000868], [109.19719127200008, 0.8706161620000046], [109.19703960900006, 0.8701134710000673], [109.19628999800004, 0.8696628120000831], [109.19632436400003, 0.8687881680000125], [109.19680916500009, 0.8682775640000422], [109.19716222900009, 0.8682906390000582], [109.19843423000007, 0.8692055830000882], [109.19850442500002, 0.8687332540000874], [109.19793988300003, 0.8681084300000812], [109.19906868400008, 0.8667291080000865], [109.19940095200005, 0.8666177640001109], [109.19964303700009, 0.8669913520001131], [109.2002239920001, 0.8665823010000189], [109.20057342600006, 0.8661720870000948], [109.20052288000005, 0.8656771489999997], [109.20230579900004, 0.866326339000068], [109.20237901400007, 0.8652782530000351], [109.20171830500003, 0.8651342040001069], [109.20194282900003, 0.8638967600000385], [109.2022720160001, 0.8636031370000801], [109.20246118500003, 0.8645809990000757], [109.20303876400003, 0.8641898360000404], [109.20308912700003, 0.8636772859999979], [109.20266588200009, 0.8631152970000393], [109.20349849200005, 0.8630926440000302], [109.20370238900006, 0.8628785730000814], [109.20303047100006, 0.8620387870000528], [109.20339313900004, 0.8616494100000764], [109.20319961000011, 0.8606117690000197], [109.20350817100005, 0.8601782530000328], [109.20419437400008, 0.860095962000063], [109.20433188200009, 0.8597738820000593], [109.20411158700007, 0.8593343630001087], [109.2032316710001, 0.859560694000006], [109.20365277900004, 0.8586120230000276], [109.20389847600002, 0.8585331780000764], [109.2047947230001, 0.8593590230000174], [109.20619677800002, 0.8593256910000129], [109.20609237700009, 0.8590409969999939], [109.20560628900002, 0.8589186649999974], [109.20460424100007, 0.8563032190000435], [109.20502349800003, 0.8560502230000715], [109.20499633400009, 0.8567114860000729], [109.20530896000011, 0.8568113080000721], [109.20561169800003, 0.8566440380000877], [109.20593554100009, 0.8558161330000651], [109.20665324900004, 0.8560859660000091], [109.20741580400008, 0.8557531250000032], [109.20674155200007, 0.8552035270000928], [109.20581136000003, 0.8536657000000396], [109.20471936900009, 0.8527774940000903], [109.20571768000009, 0.8525703710000947], [109.20686698400006, 0.8530551330000584], [109.20738396900002, 0.8529879380000942], [109.20767769900007, 0.8525498479999953], [109.20750701200008, 0.8520482920000632], [109.20826214200012, 0.8517812729999967], [109.20849341300007, 0.8510020560000058], [109.20949781000004, 0.8516796690000277], [109.20952058800006, 0.8508576310000464], [109.20869478300003, 0.8497050990000758], [109.20902024500005, 0.8487123990000072], [109.20969135400007, 0.8487202720000369], [109.21003981900012, 0.8495210030000315], [109.21037449, 0.8495826460000693], [109.21124896700007, 0.8490398140000082], [109.21086233400005, 0.8480955410000384], [109.21296975400007, 0.8484436900000674], [109.21472983800004, 0.8481862559999946], [109.2152994610001, 0.8477811460000488], [109.21546109300006, 0.847091027000058], [109.21644964700005, 0.8467888300000119], [109.21669619200011, 0.845788506000023], [109.21756571300003, 0.8462072200000286], [109.21767425600004, 0.8441157180000829], [109.2180733600001, 0.8438629600000418], [109.21785677600003, 0.8448842930000815], [109.21817474700006, 0.8449142770000755], [109.21918844900009, 0.8430331450000388], [109.21907218700007, 0.8421751480000133], [109.21939743400006, 0.8421801350000706], [109.22059196300005, 0.8432098290000027], [109.22141893900007, 0.842530833000044], [109.22157996100007, 0.8416658320000607], [109.22262624200005, 0.8410511230000921], [109.22213599000007, 0.8404392790000941], [109.22218161000004, 0.840125202000042], [109.22251463800005, 0.8400373610000571], [109.22223102600012, 0.8393124740000317], [109.22257357600004, 0.8389155260000507], [109.22265314700006, 0.8380455070000963], [109.22402166400005, 0.8370015490000497], [109.22402483500004, 0.8360203690000461], [109.2243583050001, 0.8363956830000134], [109.22452807600011, 0.8374023760000853], [109.2254564120001, 0.8369264920000568], [109.22623027600008, 0.8372288440000268], [109.22592803300003, 0.8362452550000903], [109.22623453700008, 0.8362278799999849], [109.22691349900003, 0.836814566000033], [109.22719845200008, 0.8367165950000093], [109.22647221100003, 0.8350875360000458], [109.22651971500005, 0.8347440540000477], [109.2281874050001, 0.8355694490000403], [109.22855143900003, 0.8346092709999979], [109.22893534700009, 0.8342398930000776], [109.23160144200006, 0.8341548880000609], [109.23193543400006, 0.8342427290000458], [109.23215719700003, 0.8349050210000435], [109.23277250100004, 0.8347863230000812], [109.23285256900002, 0.8360405120000252], [109.23312505100009, 0.8361689570000834], [109.2341836020001, 0.8352150350000258], [109.23496021500004, 0.8352894510000546], [109.23543799500005, 0.834574368000041], [109.23569248500006, 0.8333618690000826], [109.23522884900007, 0.832673828000086], [109.23591116700004, 0.8321436770000084], [109.23664284100009, 0.8325651030000607], [109.23749991400004, 0.8325034830000249], [109.23774072300007, 0.8329576610000338], [109.23833332600007, 0.8323481570000517], [109.23984632700002, 0.8320082419999935], [109.24005200400008, 0.8326826380000156], [109.239476772, 0.8329960270000107], [109.2396283040001, 0.8342431009999878], [109.24029379700002, 0.8343413590000353], [109.24057600500001, 0.8341453260000691], [109.2406877930001, 0.8329679379999959], [109.2420842010001, 0.8332086640000185], [109.24283971800008, 0.8322387540000591], [109.24301343900007, 0.8317373210000483], [109.24272757000004, 0.8312877070000617], [109.24211766100011, 0.830993741000075], [109.24208340700002, 0.8320970140000554], [109.24141679100003, 0.8306934050000052], [109.24159492000011, 0.8303894070000766], [109.24240930300009, 0.8300452180001088], [109.24254134900008, 0.829363867000044], [109.24363516000008, 0.8287720420000149], [109.24402128900006, 0.8276122810000679], [109.2448666020001, 0.8275062130000848], [109.24594231200011, 0.8284429490000527], [109.24658455700005, 0.8282290920000328], [109.24642243700004, 0.8294379790000477], [109.24754673500007, 0.8289269330000408], [109.24829750000002, 0.8273321700000729], [109.24999999999993, 0.8272844646012416]]}}, {"type": "Feature", "properties": {"id": 24, "nama": "Batas Administrasi"}, "geometry": {"type": "LineString", "coordinates": [[109.05796429600007, 1.0073361660000728], [109.05635612000006, 1.0067426850000842], [109.05533340200009, 1.0067624150000292], [109.05337728700006, 1.0061509030000586], [109.05055196600006, 1.0057301070000584], [109.05022471900007, 1.0054288110000869], [109.05005920700006, 1.005583981000047], [109.04836109800006, 1.0041508410000404], [109.04641474400005, 1.001955142], [109.04582688900008, 1.0000000080000575], [109.04480684200006, 0.9996830730000354], [109.03950291500006, 0.9998565010000853], [109.03126042800001, 0.9990903120000176], [109.01210979200009, 0.9988133500000167], [109.00775686800007, 0.997934257000022], [108.99788939500006, 0.9974413190000924], [108.99343900700006, 0.9978281110000324], [108.98825263800002, 0.9977257940000932], [108.98669792800008, 0.9970149410000744], [108.98546828000003, 0.9970141840000117], [108.98055127100008, 0.9978373469999973], [108.9783972280001, 0.9977808950000338]]}}, {"type": "Feature", "properties": {"id": 25, "nama": "Batas Administrasi"}, "geometry": {"type": "LineString", "coordinates": [[109.05453260100008, 1.104249360000054], [109.05279087400004, 1.1001115200000804], [109.0490110000001, 1.0894120470000495], [109.04523158000003, 1.079740769000093], [109.0422107360001, 1.0704791060000112], [109.04300314500003, 1.0698781730000277], [109.04519405800004, 1.0669311109999917], [109.04583946400005, 1.065413810000038], [109.04578644500002, 1.064573621000065], [109.04457800600004, 1.0631361570000557], [109.04292470000011, 1.0626411440000432], [109.04179310800001, 1.061992813000046], [109.04100913600007, 1.0607595050000533], [109.04032484700012, 1.05766816300007], [109.03998868100011, 1.0538044690000419], [109.03995307500008, 1.050375549000016], [109.04045819300005, 1.0477182950000667], [109.03959217200007, 1.0467115110000762], [109.03824551900003, 1.046408914999997], [109.03737276200012, 1.045932590000021], [109.03690020300009, 1.045383323000049], [109.0367103600001, 1.0438260190000719], [109.03701063600008, 1.0423397900000246], [109.03682468200006, 1.0413380200000937], [109.03592047900013, 1.0404726100000765], [109.03588462300009, 1.0396308330000608], [109.0362851300001, 1.0390455170000372], [109.03723134100005, 1.038387344000025], [109.04891611500007, 1.0327143620000427], [109.05329059300009, 1.0362834710000328], [109.05418504100001, 1.035025678000057], [109.05470859000008, 1.0349481670000387], [109.05519373000007, 1.035181739000091], [109.05697293200002, 1.0367765170000602], [109.05693711200009, 1.038286123999999], [109.05771446500009, 1.0393559290000525], [109.05858960400012, 1.040269021000018], [109.06054689500006, 1.041366766000074], [109.06323333100002, 1.0419824380000335], [109.06601928700006, 1.0422597500000634], [109.06817238100004, 1.0428897570000544], [109.07119623000003, 1.042476740000076], [109.07221581000002, 1.0420677760000778], [109.07276570100004, 1.0415327530000411], [109.07363737600004, 1.0395653620000616], [109.07360299700012, 1.037580215000034], [109.07333922500005, 1.0370094120000566], [109.07212474500002, 1.0365019810000824], [109.06936253500001, 1.036272294000085], [109.0656215980001, 1.034868108000076], [109.06529962400002, 1.034554866000093], [109.0653027310001, 1.033013507000014], [109.0658480900001, 1.031663335000033], [109.06670771100008, 1.0302615420000443], [109.06886971500009, 1.0281549470000932], [109.06890701000006, 1.0276696970000003], [109.06779457300004, 1.0251815680000114], [109.06512659600008, 1.0227454780000649], [109.06424905800004, 1.0215797430000677], [109.06305304400003, 1.0188774040000297], [109.06285400100008, 1.0174460560000824], [109.06300395300005, 1.014946741000056], [109.06271711700003, 1.0136339580000602], [109.06048772900004, 1.0111334920000274], [109.05847958200007, 1.0101408410000516], [109.05787779900002, 1.0085348480000427], [109.05796429600007, 1.0073361660000728]]}}, {"type": "Feature", "properties": {"id": 26, "nama": "Batas Administrasi"}, "geometry": {"type": "LineString", "coordinates": [[109.01085988110788, 0.7500000000001066], [109.01076681400008, 0.7502021840000488], [109.01139421600003, 0.7502900780000381], [109.01228447600006, 0.750981199000023], [109.01166884700011, 0.7517103290000442], [109.0119844310001, 0.752071116000053], [109.01279188700003, 0.7523404350000433], [109.01278365000006, 0.7526582780000517], [109.012283842, 0.7523829880000115], [109.01263782400008, 0.752882331000027], [109.01260527400005, 0.7532368370000491], [109.01443313300003, 0.753929007000032], [109.01486906400004, 0.7534036679999971], [109.01521688100004, 0.753382187000085], [109.01559082300007, 0.7542754960000124], [109.0169878170001, 0.7543336200000255], [109.01764835500005, 0.7549190530000587], [109.01769593900008, 0.7556200630000625], [109.01822472900004, 0.7563777950000521]]}}, {"type": "Feature", "properties": {"id": 27, "nama": "Batas Administrasi"}, "geometry": {"type": "LineString", "coordinates": [[109.03294291400005, 0.8986728160000794], [109.03889174700002, 0.8970289580000461], [109.0426444440001, 0.8964685620000417], [109.04687598000002, 0.8963101460000793], [109.05032998300008, 0.8966263190000383], [109.05051616900003, 0.896931006000024], [109.05107638400001, 0.8984249290000861], [109.05073986600006, 0.900169203000079], [109.05143108400006, 0.9009527970000768], [109.05216088200004, 0.9038999980000355], [109.05211401600008, 0.904606986000001], [109.05378180100004, 0.9059119100000572], [109.05648820700006, 0.9096722880000634], [109.05703158900008, 0.911883788000079], [109.05705443400011, 0.9127429960000271], [109.05677848600001, 0.9129571050000678], [109.05677923600007, 0.9133183950000294], [109.05732046200009, 0.9144977280000859], [109.05711907800013, 0.9151030220000749], [109.05733360500003, 0.915946841000082], [109.05708467700003, 0.916124467000035], [109.05700572000008, 0.9168389089999955], [109.05741540800004, 0.9179134410000849], [109.05814953000004, 0.9186409340000594], [109.0585989640001, 0.919991477000071], [109.05899471900007, 0.9205738400000278], [109.05947123900006, 0.9207940140000375], [109.05980094300007, 0.9217848880000439], [109.059797997, 0.9226844560000451], [109.06027708100002, 0.9234391910000532], [109.06010111700003, 0.9241029389999937], [109.06029386300008, 0.9265403150000466], [109.05989698100011, 0.9268854080000004], [109.05904527900007, 0.9286426690000908], [109.05932646600007, 0.9292726430000791], [109.05885648900008, 0.9312137330000141], [109.05911339400002, 0.9322518790000238], [109.05871424300004, 0.9359287150000455], [109.05906977900005, 0.9387479970000783], [109.0589296000001, 0.9399893720000279], [109.06007858600013, 0.9419795870000307], [109.06035052800007, 0.9440933690000435], [109.061931013, 0.9466996300000368], [109.06293294300004, 0.947399054000087], [109.06384297700002, 0.9485022810000636], [109.06455398800006, 0.949729372999986], [109.06527282800002, 0.9517450830000556], [109.06616689, 0.952236908999982], [109.06659933600008, 0.9519393260000513], [109.0675666560001, 0.9522918629999992], [109.07125550900005, 0.9540991170000517], [109.0721889690001, 0.9549385880000543], [109.07369046000008, 0.9554781360001101], [109.07504909300005, 0.9563225390000767], [109.07698061900008, 0.958421345000005], [109.07745927800008, 0.9593810500000082], [109.0773747320001, 0.9611848810000438], [109.077055967, 0.9622148020000836], [109.07634795700005, 0.9630196040000598], [109.07620413100005, 0.9642155390000688], [109.07703066300004, 0.964867211000076], [109.07738728600006, 0.966048166000089], [109.0787466890001, 0.9679366180001097], [109.08088116200005, 0.9695476550000031], [109.08107319400004, 0.9714598550000346], [109.08137637200008, 0.9719030290000212], [109.08186220900004, 0.9720447260000213], [109.08302506900007, 0.9715755860000179], [109.08473803600005, 0.9714046479999965], [109.08538287500002, 0.9724512330000827], [109.08657400600008, 0.973529027999998], [109.08772177100009, 0.9755671990000607], [109.08738174000003, 0.9765343410000575], [109.08753348200005, 0.9772202440000548], [109.08721376800007, 0.9778637920000115], [109.08465014200006, 0.9794859490000256], [109.08342665900008, 0.9805452270000075], [109.08351807600009, 0.9808271460000633], [109.08400720500006, 0.9810376030000683], [109.0841408160001, 0.982088123000036], [109.08542311800007, 0.984261840000034], [109.08555467900003, 0.9861976200000626], [109.08452233800006, 0.9859272420000735], [109.08315339100002, 0.987345182000066], [109.08282146600001, 0.9874143260000139], [109.08133761000006, 0.9857575850000693], [109.07994117200008, 0.9855630560000499], [109.07938975800002, 0.9861894230000061], [109.07758221900012, 0.9873458240000303], [109.07701037300005, 0.9884032810000392], [109.077345699, 0.9896013510000472], [109.07685218800012, 0.9914725440000609], [109.07882064500009, 0.9946905800000465], [109.08048863600008, 0.9960491980000157], [109.08327107900008, 0.9966766210000593], [109.08525699500008, 0.9987818460000746]]}}, {"type": "Feature", "properties": {"id": 28, "nama": "Batas Administrasi"}, "geometry": {"type": "LineString", "coordinates": [[109.16360354400005, 1.078629625000083], [109.16484469800007, 1.0776924339999887], [109.16732708600003, 1.0773704380000808], [109.16868344100007, 1.0789867260000534], [109.16932703500004, 1.0789844750000448], [109.17056078100006, 1.0784377090001023], [109.17252460400002, 1.076933702000094], [109.17308132200007, 1.0768644540000487], [109.17483102400007, 1.0774935950000568], [109.17607650600009, 1.0776090970000212], [109.17653197500003, 1.0774988890000508], [109.17686766100009, 1.0769265540000355], [109.17764473800008, 1.0764570290000002], [109.17843917000009, 1.075367981000042], [109.17872432600007, 1.074090620000046], [109.17905992900003, 1.0736550090000634], [109.18103854900005, 1.0727546650000868], [109.18133589800004, 1.0723959380000707], [109.18117965200008, 1.0710114990000967], [109.18158354200003, 1.0699478390001076], [109.18221721400005, 1.0692853510000937], [109.18393293300008, 1.0682599080000692], [109.18418134600003, 1.064820552000068], [109.18378777100006, 1.0620967900000338], [109.1839471090001, 1.0599208650000307], [109.18459571600003, 1.057900065000073], [109.18604701300002, 1.0558532860000973], [109.18624681800013, 1.054988693000059], [109.18837987800005, 1.0505418690000106], [109.18841538800005, 1.0485495940001037], [109.18781833100003, 1.0470619430001165], [109.18783155800007, 1.0455859240000258], [109.18807819900005, 1.0448145410000613], [109.18766593600013, 1.0432476490000013], [109.18943829800004, 1.041733294000025], [109.18925567600003, 1.040839386000048], [109.19015119600006, 1.0396453750000205], [109.1899734890001, 1.0388424040000181], [109.19100912800008, 1.0382617060001103], [109.19384311600008, 1.038129052000059], [109.19544311800004, 1.0372559520000273], [109.19761829000007, 1.036534709000037], [109.19916156200013, 1.035500374000076], [109.19994399100003, 1.0348322430000394], [109.20074817700005, 1.0335925910000547], [109.20072856900002, 1.0303575200000807], [109.20288262999999, 1.0290539390000468], [109.20377257000008, 1.0277172830000296], [109.20621335600006, 1.0269589309999887], [109.20858501000001, 1.0280296760000311], [109.21090648500007, 1.0277453230000404], [109.21176533300007, 1.0274235200000597], [109.21224611500006, 1.0265082020000875], [109.21209432500002, 1.0246622890000339], [109.21282244100006, 1.0238862790000418], [109.21296834700004, 1.0232198110000539], [109.21359468700008, 1.0222606250000936], [109.21592397300007, 1.0210094000000396], [109.21771269300011, 1.0191267220000526], [109.21861108800002, 1.0174608440000625], [109.22077020000005, 1.0169004800000607], [109.22179802300009, 1.0158572730000763], [109.2243561160001, 1.0150006700000773], [109.22555380900008, 1.0134370880000247], [109.22649397000005, 1.0130150120000074], [109.2265632190001, 1.0124978400000266]]}}, {"type": "Feature", "properties": {"id": 29, "nama": "Batas Administrasi"}, "geometry": {"type": "LineString", "coordinates": [[109.08525699500008, 0.9987818460000746], [109.08469556800009, 1.000000003000057], [109.08318054500005, 1.0015145540000496], [109.07943622600004, 1.0026087110000752], [109.07489687100006, 1.0033161060000744], [109.06951467800008, 1.0050504470000448], [109.06609098600003, 1.0052176760000258], [109.06121803100008, 1.0041010540000066], [109.05981667400003, 1.004131864000069], [109.05817416700003, 1.0056160410000352], [109.05796429600007, 1.0073361660000728]]}}, {"type": "Feature", "properties": {"id": 30, "nama": "Batas Administrasi"}, "geometry": {"type": "LineString", "coordinates": [[109.17551493000008, 0.9733897200000179], [109.1743686720001, 0.972247450000097], [109.17360082100006, 0.9718344960000351], [109.17352005900004, 0.9694116050000261], [109.17205060500005, 0.9668794120000328], [109.17290266600013, 0.9660176410000503], [109.17438427100005, 0.9654761480000111], [109.17586246400006, 0.9632141600000814], [109.17582093800009, 0.962697172000027], [109.17329702200007, 0.9613713820000207], [109.171345869, 0.9612023969999832], [109.16972750800004, 0.9600741520000682], [109.16919785, 0.9593539340000738], [109.16883277699999, 0.9575009200000544], [109.16820690100008, 0.9567758250000118], [109.16916492400013, 0.9550134380000301], [109.16662413900004, 0.9542991550000828], [109.16520984600008, 0.9517117420000503], [109.16510670900007, 0.9506573340000273], [109.16240934600009, 0.949529833000085], [109.16204914000005, 0.9488163550000266], [109.16200745500007, 0.9477369160000642], [109.162470457, 0.9469746240000525], [109.16312303500008, 0.9468727760000633], [109.16372994200012, 0.9478678450000615], [109.16402390800002, 0.9479891160000591], [109.16448993100002, 0.9462710260000122], [109.16557891100007, 0.9457572560000465], [109.16551294300002, 0.9455271180000118], [109.1643147610001, 0.9450076760000208], [109.162497316, 0.9450800750000603], [109.16395127000004, 0.9412194720000215], [109.1639949820001, 0.9397837970000715], [109.16351162200009, 0.9397582180000867], [109.16174568500007, 0.9409636460000819], [109.15960284100005, 0.9409714410000163], [109.15910879500004, 0.9414804460000319], [109.15895898600007, 0.9421792700000324], [109.15855730400006, 0.9423172380000793], [109.15813885500008, 0.9418035890000347], [109.1588090050001, 0.9400702830000611], [109.15854053, 0.9388486090000541], [109.1582700850001, 0.9386350300000572], [109.15701919200006, 0.9385775810001], [109.1567597910001, 0.9381506010000322], [109.15708478400008, 0.9377842830000098], [109.1583409830001, 0.9378028230000339], [109.15913200500009, 0.9379562810000301], [109.16138360200004, 0.9390658900000908], [109.16201340000002, 0.9386711850000289], [109.16237798100008, 0.937756907000054], [109.16222534300006, 0.9355232979999855], [109.16122760700001, 0.9359164580000972], [109.15997832900004, 0.9347701770001109], [109.15756846800004, 0.9342250350000363], [109.15770537900009, 0.9322927300000288], [109.15907497300007, 0.9310511170000595], [109.16056635100001, 0.932785002000081], [109.16194626700006, 0.9316615260000276], [109.16237605400009, 0.9306693030000872], [109.16283307400008, 0.9283708000000672], [109.1621883440001, 0.9270820430000164], [109.16305516100006, 0.9255062360000181], [109.16355090600004, 0.9237838520000601], [109.16250216600005, 0.922454566000031], [109.16248607400004, 0.9216829540000475], [109.16325362300005, 0.9204676860000376], [109.16416818900005, 0.9206382700000297], [109.16506379800008, 0.9197851260000505], [109.16610386600007, 0.9192857220000299], [109.16572720500008, 0.9180641660000326], [109.16693391600009, 0.9171466390000553], [109.16807910400007, 0.9148317190000981], [109.16940223400005, 0.9148981380000869], [109.17049779300001, 0.9139755580000468], [109.17129252900013, 0.9138437110000623], [109.17351300100009, 0.9127091670000702], [109.17359804700001, 0.912375623000095], [109.17323811300008, 0.9113733470000334]]}}, {"type": "Feature", "properties": {"id": 31, "nama": "Batas Administrasi"}, "geometry": {"type": "LineString", "coordinates": [[109.2265632190001, 1.0124978400000266], [109.22815697200008, 1.0114769120000204], [109.2290470350001, 1.0102500930000318], [109.23002205000003, 1.007421634000039], [109.23204732600009, 1.0036418840000287], [109.23232926700005, 1.0026913140000708], [109.23247554800008, 0.9996346760000279], [109.23125384100007, 0.9985220240000707], [109.23014877800003, 0.995700006000078], [109.22888134700005, 0.9939737890000693], [109.2267478030001, 0.9930745450000948], [109.22562910600008, 0.9921563280000605], [109.22479491700007, 0.9924810070000127], [109.22402379100004, 0.9920729620000905], [109.2233922650001, 0.9920483590000089], [109.22227844900004, 0.9924068590000061], [109.22009385900013, 0.9937644170000652], [109.21914431000008, 0.9934387730000331], [109.21829092300008, 0.993617857000018], [109.2175428880001, 0.9951023550000109], [109.21673532500006, 0.9949912390000542], [109.21586016600013, 0.9942857080000316], [109.21367932100007, 0.9933546099999973], [109.21256632500008, 0.9925189020000396], [109.21069020000002, 0.9898147760000313], [109.20766390900009, 0.9890236990000361], [109.20708336000011, 0.988410830000042], [109.20537888500003, 0.985330191000056], [109.20423675900012, 0.984490860000065], [109.19945286900007, 0.9839771970000193], [109.19775361200007, 0.9834702399999955], [109.19691048300004, 0.9825413590000558], [109.19596155100004, 0.982040434000087], [109.19313408500004, 0.9816957900000816], [109.19202938600003, 0.9811017670000481], [109.19151536800004, 0.9801627750000712], [109.19053571400008, 0.9797990199999944], [109.18976095000001, 0.9786174540001085], [109.18770283700007, 0.978060747000054], [109.18735451000003, 0.9776605240000684], [109.18647259600007, 0.9775407290000153], [109.18535830400006, 0.9769737479999989], [109.18271896800009, 0.9766070170000312], [109.18209022400002, 0.9755507680000335], [109.18146667100004, 0.9752392240001022], [109.18085722500005, 0.9739478460000122], [109.18005996000008, 0.9733803000000378], [109.17990963900007, 0.9729221140000526], [109.17961529300005, 0.9729009270000759], [109.17938878100006, 0.9724996440000027], [109.1785422710001, 0.9732467089999979], [109.17694097000003, 0.973138618000025], [109.17632144100011, 0.9728170470000634], [109.17551493000008, 0.9733897200000179]]}}, {"type": "Feature", "properties": {"id": 32, "nama": "Batas Administrasi"}, "geometry": {"type": "LineString", "coordinates": [[109.04203125300009, 0.8399105920000487], [109.03515532800004, 0.8398909150001082], [109.03311701300007, 0.8411957630000693], [109.03063166300004, 0.8416578810000246], [109.02863324600007, 0.8404287570000228], [109.02640272600007, 0.8398670340000862], [109.02484473400004, 0.8398241150000878], [109.02312551400009, 0.8403287350000959], [109.02140800299999, 0.841348840000034], [109.0210464150001, 0.8400918090000324], [109.02055285300011, 0.8393457400000308], [109.01971878200003, 0.8390801350000814], [109.01848392800008, 0.8391043700000438], [109.01595909100007, 0.839650013000071], [109.01365875300009, 0.8412205680000788], [109.01207808200003, 0.8413772120000722], [109.0109763710001, 0.8419426310000482], [109.01008876200011, 0.8418034340000773], [109.00871064700003, 0.8425350390000368], [109.00632502000009, 0.8432013290000988], [109.00544130800007, 0.8443002900000778], [109.00262556500006, 0.8441131260000461], [109.00124594600004, 0.8457373690000551], [109.00000001500007, 0.8461520440000818], [108.99706859400008, 0.8483805490000833], [108.99663069400009, 0.8490700820000256], [108.99672821800007, 0.8508025780001098], [108.99710485600006, 0.8523266209999996], [108.99710613600008, 0.8539160760000613], [108.9968680680001, 0.8545672210000248], [108.99560175200004, 0.8562520040000692], [108.9955756040001, 0.856781755000025], [108.99661223500007, 0.8600184870000476], [108.99769747300007, 0.862284861999985], [108.99780910000007, 0.8667955390000763], [108.99761179700009, 0.8689515050000267], [108.99650284799999, 0.8714196010000457], [108.99411170600004, 0.8723529359999986], [108.99267750800003, 0.872266257000021]]}}, {"type": "Feature", "properties": {"id": 33, "nama": "Batas Administrasi"}, "geometry": {"type": "LineString", "coordinates": [[108.99466084300009, 0.8832444710001113], [108.99692679800008, 0.8824658709999937], [108.99791976300008, 0.8816248500000405], [108.99934964900008, 0.8815155680000579], [109.00009602700003, 0.8816939450000731], [109.00207706200007, 0.8802323490000212], [109.00299441300002, 0.8800688889999968], [109.00496488500008, 0.8820522690000558], [109.00639094900004, 0.8821991360000396], [109.00681923300003, 0.8837556390000394], [109.00855981000008, 0.8857829170000002], [109.01082489500008, 0.8864320600000646], [109.01108948800004, 0.8872579820000119], [109.01112028200001, 0.8886808810000595], [109.01258413300008, 0.8889802260000472], [109.01368182900003, 0.8895779250000295], [109.01469741900004, 0.8902899220000542], [109.01573799200008, 0.8915037460000335], [109.02019220300012, 0.8939918570000209], [109.02236923200003, 0.8961352280000838], [109.0288310590001, 0.8990321370000558], [109.03018822200004, 0.8991935570000891], [109.03294291400005, 0.8986728160000794]]}}, {"type": "Feature", "properties": {"id": 34, "nama": "Batas Administrasi"}, "geometry": {"type": "LineString", "coordinates": [[109.17323811300008, 0.9113733470000334], [109.17290325400008, 0.9099812790000499], [109.17389380400006, 0.9095905360000494], [109.17423377100003, 0.9091954360000436], [109.17295779100006, 0.9086514190000621], [109.1729141530001, 0.9083923010000277], [109.17395034600013, 0.9074582170000127], [109.17490032000003, 0.9079229120000925], [109.17534950600007, 0.9091823720000285], [109.17616205200007, 0.9102458640000037], [109.17667268800004, 0.9103201760000239], [109.17740850800008, 0.9097387260000538], [109.17856151700009, 0.9102137550000116], [109.17900525000003, 0.9114253940000765], [109.18078924300002, 0.9113214800000051], [109.18065688400009, 0.9104962060000226], [109.17949374200003, 0.9100431270000158], [109.17846780000006, 0.9091776720000837], [109.17827654300005, 0.9082248780000306], [109.17846142300007, 0.9079381340000197], [109.1787098620001, 0.9079848200000633]]}}]}